name,categories,address,lat,lng,distance,city
Federation Square Book Market,Bookstore,Federation Square,-37.81722927084524,144.96933978173965,638,Melbourne
The Book Grocer,Bookstore,455 Bourke Street,-37.81527,144.96054,258,Melbourne
The Book Grocer,Bookstore,287 Little Collins St,-37.814927,144.965139,191,Melbourne
The Book Grocer,Bookstore,165 Swanston Street,-37.813913,144.965694,225,Melbourne
Book Grocer,Bookstore,206 Bourke St,-37.81291,144.96702,369,Melbourne
The Book Grocer,Bookstore,147-149 Russell St,-37.81300678505016,144.9682491466126,467,Melbourne
The Book Grocer,Bookstore,140 Bourke St,-37.812641,144.969259,564,Melbourne
Second Hands Book,Bookstore,,-37.81507925425275,144.96803770145902,439,
The Book Grocer,Bookstore,464 Collins St,-37.81787788882015,144.95883841007142,557,Melbourne
The Book Grocer,Bookstore,415 Elizabeth St.,-37.80918,144.96056,605,Melbourne
2nd book shop,Bookstore,,-37.816244,144.968586,527,
All Books 4 Less,Bookstore,360 Bourke St.,-37.81429897217087,144.9630872916126,11,Melbourne
The Book Grocer,Bookstore,201 Spencer St.,-37.81639,144.95261,958,Docklands
Temple Books,Bookstore,Melbourne,-37.813988088322006,144.96299028396606,29,Rutherglen
Art Book Fair,Bookstore,NGV Hall,-37.822436,144.969346,1064,Melbourne
Book Affair,Bookstore,Elgin Street,-37.797352770545274,144.9693607283613,1954,Carlton
ACU Book Store,College Bookstore,,-37.807676,144.978315,1518,Fitzroy
Victoria University Book Shop,College Bookstore,"Footscray Park Campus, Ballarat Rd",-37.793017314047184,144.89974780538554,6056,Footscray
The Book Grocer,Bookstore,286 Brunswick Street,-37.7989,144.9786,2179,Fitzroy
Book Affair,Bookstore,287 Smith St,-37.80027,144.9839,2395,Fitzroy
Pelican Books,Bookstore,121 Elizabeth Street,-37.815487,144.963644,147,Melbourne
The Book Grocer,Bookstore,,-37.837622,144.995999,3889,South Yarra
Book Affair,Bookstore,,-37.775397,144.960742,4326,
Book Frenzy,Bookstore,"500 Chapel St, South Yarra VIC 3141",-37.842818,144.995101,4245,South Yarra
the book grocer,Bookstore,452 Sydney Road,-37.772369384765625,144.96495056152344,4661,
The Haunted Bookshop,Bookstore,15 McKillop Street,-37.81547,144.96169,190,Melbourne
Central Catholic Bookshop,Bookstore,Lonsdale St,-37.811968,144.963328,250,Melbourne
China Books,Bookstore,,-37.812401,144.965165,268,
Book Planet,Bookstore,608 Ferntree Gully Rd,-37.9045899741834,145.16252517700195,20204,Wheelers Hill
The Book Grocer,Bookstore,452 Sydney Rd.,-37.76746,144.96228,5205,Brunswick
Robinsons Bookshop,Bookstore,,-37.81221352584693,144.96405798988505,236,Melbourne
Academic & General Bookshops,Bookstore,259 Swanston Street,-37.8111534734445,144.96456888826722,362,Melbourne
The Book Grocer,Bookstore,263 High St.,-37.77264,144.99812,5556,Northcote
Dirt Cheap Books,Bookstore,266-310 Elizabeth St.,-37.811715,144.962276,289,Melbourne
The Book Grocer,Bookstore,,-37.81669,144.89159,6300,Yarraville
Academic And General Bookshops,College Bookstore,259 Swanston St.,-37.811439103868956,144.9648915625289,344,Melbourne
Book Grocer,Bookstore,Puckle street,-37.766983,144.922264,6371,Moonee Ponds
Xinhua Bookstore,Bookstore,Little Bourke Street,-37.81205557198029,144.966938495636,410,Melbourne
Inspiration Adult Book Store,Bookstore,,-37.85731200596345,144.99152721071488,1131,
Gold's Book and Gift Company,Bookstore,3-13R William Street,-37.869441,144.993731,1232,Melbourne
Federation Square Book Market,Bookstore,Federation Square,-37.81722927084524,144.96933978173965,5298,Melbourne
Book Frenzy,Bookstore,"500 Chapel St, South Yarra VIC 3141",-37.842818,144.995101,2620,South Yarra
Victoria University Book Shop,College Bookstore,"Footscray Park Campus, Ballarat Rd",-37.793017314047184,144.89974780538554,10675,Footscray
The Book Grocer,Bookstore,,-37.837622,144.995999,3178,South Yarra
Book Planet,Bookstore,608 Ferntree Gully Rd,-37.9045899741834,145.16252517700195,16527,Wheelers Hill
Bookhouse,Bookstore,137 Fitzroy St,-37.85924710795372,144.9784987870557,579,St Kilda
Book Grocer,Bookstore,206 Bourke St,-37.81291,144.96702,5811,Melbourne
The Book Grocer,Bookstore,455 Bourke Street,-37.81527,144.96054,5714,Melbourne
The Book Grocer,Bookstore,140 Bourke St,-37.812641,144.969259,5800,Melbourne
The Book Grocer,Bookstore,165 Swanston Street,-37.813913,144.965694,5730,Melbourne
The Book Grocer,Bookstore,287 Little Collins St,-37.814927,144.965139,5633,Melbourne
The Book Grocer,Bookstore,201 Spencer St.,-37.81639,144.95261,5864,Docklands
The Book Grocer,Bookstore,147-149 Russell St,-37.81300678505016,144.9682491466126,5778,Melbourne
Book Affair,Bookstore,287 Smith St,-37.80027,144.9839,7077,Fitzroy
The Book Grocer,Bookstore,286 Brunswick Street,-37.7989,144.9786,7232,Fitzroy
The Book Grocer,Bookstore,464 Collins St,-37.81787788882015,144.95883841007142,5493,Melbourne
Cosmos Books and Music,Bookstore,112 Acland Street,-37.86882858656735,144.9799564502599,576,Melbourne
Book and Paper,Bookstore,36 Douglas Pde.,-37.85779,144.89799,7382,Williamstown
Book Affair,Bookstore,Elgin Street,-37.797352770545274,144.9693607283613,7478,Carlton
The Book Grocer,Bookstore,415 Elizabeth St.,-37.80918,144.96056,6359,Melbourne
Art Book Fair,Bookstore,NGV Hall,-37.822436,144.969346,4732,Melbourne
Thesaurus Books,Bookstore,29 Church St,-37.91312,144.99373,5589,Brighton
2nd book shop,Bookstore,,-37.816244,144.968586,5419,
Second Hands Book,Bookstore,,-37.81507925425275,144.96803770145902,5556,
The Book Grocer,Bookstore,,-37.81669,144.89159,9497,Yarraville
ACU Book Store,College Bookstore,,-37.807676,144.978315,6257,Fitzroy
Book Affair,Bookstore,,-37.775397,144.960742,10013,
the book grocer,Bookstore,452 Sydney Road,-37.772369384765625,144.96495056152344,10286,
The Book Grocer,Bookstore,263 High St.,-37.77264,144.99812,10253,Northcote
Chai Jewish Books & Judaica Outlet,Bookstore,285A Carlisle Street,-37.8692213959954,144.99633014202118,1424,Balaclava
Syber's Books,Bookstore,38 Chapel St,-37.856210161914554,144.99275815961028,1293,Windsor
The Book Grocer,Bookstore,452 Sydney Rd.,-37.76746,144.96228,10861,Brunswick
Book Grocer,Bookstore,Puckle street,-37.766983,144.922264,11978,Moonee Ponds
Andrew Isles Natural History Books,Bookstore,,-37.849065,144.990731,1827,
"Monash University Bookshop, The Alfred",Bookstore,The Alfred,-37.84591813727972,144.98236656188965,1994,Melbourne
Book Planet,Bookstore,608 Ferntree Gully Rd,-37.9045899741834,145.16252517700195,12359,Wheelers Hill
Federation Square Book Market,Bookstore,Federation Square,-37.81722927084524,144.96933978173965,7320,Melbourne
Book Frenzy,Bookstore,"500 Chapel St, South Yarra VIC 3141",-37.842818,144.995101,3879,South Yarra
The Book Grocer,Bookstore,,-37.837622,144.995999,4091,South Yarra
Victoria University Book Shop,College Bookstore,"Footscray Park Campus, Ballarat Rd",-37.793017314047184,144.89974780538554,13902,Footscray
Books in Print,Bookstore,100 Glenferrie Road,-37.86201866273599,145.02884310381728,734,Malvern
Inspiration Adult Book Store,Bookstore,,-37.85731200596345,144.99152721071488,3826,
Gold's Book and Gift Company,Bookstore,3-13R William Street,-37.869441,144.993731,3864,Melbourne
Book Grocer,Bookstore,206 Bourke St,-37.81291,144.96702,7781,Melbourne
The Book Grocer,Bookstore,140 Bourke St,-37.812641,144.969259,7650,Melbourne
Book Affair,Bookstore,287 Smith St,-37.80027,144.9839,7809,Fitzroy
The Book Grocer,Bookstore,165 Swanston Street,-37.813913,144.965694,7801,Melbourne
The Book Grocer,Bookstore,455 Bourke Street,-37.81527,144.96054,8071,Melbourne
The Book Grocer,Bookstore,286 Brunswick Street,-37.7989,144.9786,8207,Fitzroy
The Book Grocer,Bookstore,287 Little Collins St,-37.814927,144.965139,7769,Melbourne
The Book Grocer,Bookstore,147-149 Russell St,-37.81300678505016,144.9682491466126,7691,Melbourne
Book Affair,Bookstore,Elgin Street,-37.797352770545274,144.9693607283613,8852,Carlton
The Book Grocer,Bookstore,201 Spencer St.,-37.81639,144.95261,8579,Docklands
Motor Book World,Bookstore,243 Canterbury Road,-37.82531517663253,145.09208500385284,6168,Canterbury
The Book Grocer,Bookstore,464 Collins St,-37.81787788882015,144.95883841007142,8029,Melbourne
The Book Grocer,Bookstore,415 Elizabeth St.,-37.80918,144.96056,8483,Melbourne
The Book Grocer,Bookstore,263 High St.,-37.77264,144.99812,10001,Northcote
Thesaurus Books,Bookstore,29 Church St,-37.91312,144.99373,7167,Brighton
Grant's Bookshop,Bookstore,,-37.855404,145.01806,1514,
the book grocer,Bookstore,452 Sydney Road,-37.772369384765625,144.96495056152344,11316,
Art Book Fair,Bookstore,NGV Hall,-37.822436,144.969346,6979,Melbourne
Book Affair,Bookstore,,-37.775397,144.960742,11246,
Deakin University Building H (Business & Law and MIBT Book Shop),College Bookstore,"Building H, 221 Burwood Highway",-37.84882390258912,145.11473959242863,7070,Burwood
2nd book shop,Bookstore,,-37.816244,144.968586,7440,
ACU Book Store,College Bookstore,,-37.807676,144.978315,7469,Fitzroy
Second Hands Book,Bookstore,,-37.81507925425275,144.96803770145902,7559,
Book and Paper,Bookstore,36 Douglas Pde.,-37.85779,144.89799,12047,Williamstown
The Book Grocer,Bookstore,452 Sydney Rd.,-37.76746,144.96228,11902,Brunswick
Continental Bookshop,Bookstore,439–443 Burke Road,-37.84556901306103,145.05399152661045,2136,Boroondara
The Book Grocer,Bookstore,,-37.81669,144.89159,13410,Yarraville
Good News Book House,Bookstore,1027 Whitehorse Road,-37.818128338676956,145.12518714621137,9060,Box Hill
Blue Guitar Book Shop,Bookstore,,-37.77357,144.971315,10906,
Book Grocer,Bookstore,Puckle street,-37.766983,144.922264,14148,Moonee Ponds
The Campus Bookstore (Monash University Caulfield),Bookstore,"Level 2, Building K, 28 Sir John Monash Drive",-37.877179,145.044671,2336,Caulfield East
Federation Square Book Market,Bookstore,Federation Square,-37.81722927084524,144.96933978173965,2938,Melbourne
The Book Grocer,Bookstore,,-37.837622,144.995999,2001,South Yarra
Book Frenzy,Bookstore,"500 Chapel St, South Yarra VIC 3141",-37.842818,144.995101,2579,South Yarra
Book Affair,Bookstore,287 Smith St,-37.80027,144.9839,2774,Fitzroy
Victoria University Book Shop,College Bookstore,"Footscray Park Campus, Ballarat Rd",-37.793017314047184,144.89974780538554,9538,Footscray
The Book Grocer,Bookstore,140 Bourke St,-37.812641,144.969259,3049,Melbourne
Book Grocer,Bookstore,206 Bourke St,-37.81291,144.96702,3230,Melbourne
The Book Grocer,Bookstore,286 Brunswick Street,-37.7989,144.9786,3185,Fitzroy
The Book Grocer,Bookstore,147-149 Russell St,-37.81300678505016,144.9682491466126,3123,Melbourne
The Book Grocer,Bookstore,165 Swanston Street,-37.813913,144.965694,3317,Melbourne
The Book Grocer,Bookstore,287 Little Collins St,-37.814927,144.965139,3342,Melbourne
The Book Grocer,Bookstore,455 Bourke Street,-37.81527,144.96054,3735,Melbourne
ACU Book Store,College Bookstore,,-37.807676,144.978315,2556,Fitzroy
Book Planet,Bookstore,608 Ferntree Gully Rd,-37.9045899741834,145.16252517700195,16899,Wheelers Hill
Book Affair,Bookstore,Elgin Street,-37.797352770545274,144.9693607283613,3883,Carlton
Art Book Fair,Bookstore,NGV Hall,-37.822436,144.969346,2925,Melbourne
2nd book shop,Bookstore,,-37.816244,144.968586,3019,
Second Hands Book,Bookstore,,-37.81507925425275,144.96803770145902,3089,
The Book Grocer,Bookstore,201 Spencer St.,-37.81639,144.95261,4411,Docklands
The Book Grocer,Bookstore,415 Elizabeth St.,-37.80918,144.96056,3895,Melbourne
The Book Grocer,Bookstore,464 Collins St,-37.81787788882015,144.95883841007142,3850,Melbourne
The Book Grocer,Bookstore,263 High St.,-37.77264,144.99812,5330,Northcote
Inspiration Adult Book Store,Bookstore,,-37.85731200596345,144.99152721071488,4221,
the book grocer,Bookstore,452 Sydney Road,-37.772369384765625,144.96495056152344,6284,
Book Affair,Bookstore,,-37.775397,144.960742,6212,
The Book Grocer,Bookstore,452 Sydney Rd.,-37.76746,144.96228,6873,Brunswick
Blue Guitar Book Shop,Bookstore,,-37.77357,144.971315,5890,
Gold's Book and Gift Company,Bookstore,3-13R William Street,-37.869441,144.993731,5514,Melbourne
Book Grocer,Bookstore,Puckle street,-37.766983,144.922264,9229,Moonee Ponds
The Book Grocer,Bookstore,,-37.81669,144.89159,9763,Yarraville
Book and Paper,Bookstore,36 Douglas Pde.,-37.85779,144.89799,10087,Williamstown
Avenue Bookstore,Bookstore,,-37.825022,144.993753,926,Melbourne
Motor Book World,Bookstore,243 Canterbury Road,-37.82531517663253,145.09208500385284,7895,Canterbury
Domain Bookshop,Bookstore,179 Domain Rd.,-37.83469326889047,144.98508805582395,2209,South Yarra
The Paperback Bookstore,Bookstore,60 Bourke St,-37.811851620602454,144.97129618254914,2905,Melbourne
All Books 4 Less Greensborough,Bookstore,,-37.703553,145.103868,386,
All Books,Bookstore,,-37.70297091432634,145.10280248685464,491,
Robinsons Bookshop,Bookstore,Main Street,-37.70358642083249,145.1035889478286,410,Greensborough
Book Planet,Bookstore,608 Ferntree Gully Rd,-37.9045899741834,145.16252517700195,22831,Wheelers Hill
Federation Square Book Market,Bookstore,Federation Square,-37.81722927084524,144.96933978173965,17554,Melbourne
Victoria University Book Shop,College Bookstore,"Footscray Park Campus, Ballarat Rd",-37.793017314047184,144.89974780538554,20852,Footscray
The Book Grocer,Bookstore,263 High St.,-37.77264,144.99812,12339,Northcote
the book grocer,Bookstore,452 Sydney Road,-37.772369384765625,144.96495056152344,14728,
The Book Grocer,Bookstore,452 Sydney Rd.,-37.76746,144.96228,14660,Brunswick
Melbourne Book Restoration,Bookstore,,-37.630489776097924,145.18760970431464,10768,
Book Affair,Bookstore,,-37.775397,144.960742,15220,
Book Affair,Bookstore,287 Smith St,-37.80027,144.9839,15313,Fitzroy
The Book Grocer,Bookstore,286 Brunswick Street,-37.7989,144.9786,15546,Fitzroy
Eltham Bookshop,Bookstore,,-37.7139079662881,145.14842924126035,3708,Eltham
Collins Booksellers,Bookstore,"Shop T51, Uni Hill Factory Outlets",-37.68145078137726,145.07084924241798,4141,Bundoora
Book Affair,Bookstore,Elgin Street,-37.797352770545274,144.9693607283613,16040,Carlton
Book Grocer,Bookstore,206 Bourke St,-37.81291,144.96702,17358,Melbourne
Good News Book House,Bookstore,1027 Whitehorse Road,-37.818128338676956,145.12518714621137,12789,Box Hill
The Book Grocer,Bookstore,140 Bourke St,-37.812641,144.969259,17197,Melbourne
Volumes Books And Gifts,Bookstore,"Shop 3, 24 Chute St",-37.67305,145.15122,5122,Diamond Creek
Blue Guitar Book Shop,Bookstore,,-37.77357,144.971315,14323,
The Book Grocer,Bookstore,165 Swanston Street,-37.813913,144.965694,17520,Melbourne
Motor Book World,Bookstore,243 Canterbury Road,-37.82531517663253,145.09208500385284,13576,Canterbury
Book Grocer,Bookstore,Puckle street,-37.766983,144.922264,17807,Moonee Ponds
Campions Books,Bookstore,,-37.732274,145.054382,5688,
The Book Grocer,Bookstore,455 Bourke Street,-37.81527,144.96054,17951,Melbourne
The Book Grocer,Bookstore,147-149 Russell St,-37.81300678505016,144.9682491466126,17289,Melbourne
The Book Grocer,Bookstore,287 Little Collins St,-37.814927,144.965139,17634,Melbourne
adventist Book Centre,Bookstore,,-37.824233,145.166771,14339,
Book Frenzy,Bookstore,"500 Chapel St, South Yarra VIC 3141",-37.842818,144.995101,18378,South Yarra
Marvel Bookbinding & Printfinishing Pty Ltd,Bookstore,21 Kylta Rd,-37.732456,145.044534,6438,
The Book Grocer,Bookstore,,-37.837622,144.995999,17851,South Yarra
The Book Grocer,Bookstore,201 Spencer St.,-37.81639,144.95261,18546,Docklands
Robinson’s Bookshop,Bookstore,,-37.650953,145.069552,6819,Mill Park
The Book Grocer,Bookstore,415 Elizabeth St.,-37.80918,144.96056,17489,Melbourne
All Books 4 Less,Bookstore,Warringal Shopping Centre,-37.75526531027616,145.07095693582673,6579,Heidelberg
ACU Book Store,College Bookstore,,-37.807676,144.978315,16243,Fitzroy
Ulysses bookstore,Bookstore,35 Melrose street,-37.94953191252491,145.0037990091408,99,Sandringham
Book Planet,Bookstore,608 Ferntree Gully Rd,-37.9045899741834,145.16252517700195,14788,Wheelers Hill
Federation Square Book Market,Bookstore,Federation Square,-37.81722927084524,144.96933978173965,15130,Melbourne
Thesaurus Books,Bookstore,29 Church St,-37.91312,144.99373,4243,Brighton
Victoria University Book Shop,College Bookstore,"Footscray Park Campus, Ballarat Rd",-37.793017314047184,144.89974780538554,19776,Footscray
Book Frenzy,Bookstore,"500 Chapel St, South Yarra VIC 3141",-37.842818,144.995101,11992,South Yarra
Gold's Book and Gift Company,Bookstore,3-13R William Street,-37.869441,144.993731,9049,Melbourne
The Book Grocer,Bookstore,,-37.837622,144.995999,12564,South Yarra
Inspiration Adult Book Store,Bookstore,,-37.85731200596345,144.99152721071488,10412,
Book and Paper,Bookstore,36 Douglas Pde.,-37.85779,144.89799,13906,Williamstown
Book Grocer,Bookstore,206 Bourke St,-37.81291,144.96702,15642,Melbourne
The Book Grocer,Bookstore,455 Bourke Street,-37.81527,144.96054,15517,Melbourne
The Book Grocer,Bookstore,140 Bourke St,-37.812641,144.969259,15631,Melbourne
The Book Grocer,Bookstore,165 Swanston Street,-37.813913,144.965694,15558,Melbourne
Beaumaris Books,Bookstore,,-37.98620907832441,145.0342037415323,4777,
The Book Grocer,Bookstore,287 Little Collins St,-37.814927,144.965139,15459,Melbourne
The Book Grocer,Bookstore,201 Spencer St.,-37.81639,144.95261,15585,Docklands
Benns' Bookshop,Bookstore,,-37.91857822244426,145.04000071720458,4716,Bentleigh
Thesaraus Books,College Bookstore,,-37.91316405346006,144.9935499707919,4242,
The Book Grocer,Bookstore,147-149 Russell St,-37.81300678505016,144.9682491466126,15609,Melbourne
Monash Book And Merchandise Store,College Bookstore,,-37.912135,145.133526,12108,Clayton
The Campus Bookstore,College Bookstore,488 South Road,-37.93621000791059,145.05096673965454,4379,Moorabbin
All Books 4 Less,Bookstore,,-37.958242320749946,145.05351777149912,4402,
Dirt Cheap Books,Bookstore,,-37.958658,145.055311,4565,Cheltenham
Book Affair,Bookstore,287 Smith St,-37.80027,144.9839,16798,Fitzroy
The Book Grocer,Bookstore,286 Brunswick Street,-37.7989,144.9786,17005,Fitzroy
Book Affair,Bookstore,Elgin Street,-37.797352770545274,144.9693607283613,17301,Carlton
The Book Grocer,Bookstore,464 Collins St,-37.81787788882015,144.95883841007142,15274,Melbourne
The Book Grocer,Bookstore,,-37.81669,144.89159,17872,Yarraville
The Book Grocer,Bookstore,415 Elizabeth St.,-37.80918,144.96056,16174,Melbourne
Dirt Cheap Books,Bookstore,,-37.97593539521932,145.06659546218842,6160,
Mountain Books,Bookstore,,-37.98350397458091,145.06480247700406,6463,Mentone
Art Book Fair,Bookstore,NGV Hall,-37.822436,144.969346,14562,Melbourne
Syber's Books,Bookstore,668 Glenhuntly Rd,-37.886503,145.01761,7196,Caulfield
2nd book shop,Bookstore,,-37.816244,144.968586,15250,
Deakin University Building H (Business & Law and MIBT Book Shop),College Bookstore,"Building H, 221 Burwood Highway",-37.84882390258912,145.11473959242863,14885,Burwood
Out Of Print Books,Bookstore,,-37.886830880867514,145.0203238340852,7202,
Second Hands Book,Bookstore,,-37.81507925425275,144.96803770145902,15387,
Book Planet,Bookstore,608 Ferntree Gully Rd,-37.9045899741834,145.16252517700195,10704,Wheelers Hill
Motor Book World,Bookstore,243 Canterbury Road,-37.82531517663253,145.09208500385284,2156,Canterbury
Federation Square Book Market,Bookstore,Federation Square,-37.81722927084524,144.96933978173965,9507,Melbourne
Victoria University Book Shop,College Bookstore,"Footscray Park Campus, Ballarat Rd",-37.793017314047184,144.89974780538554,16143,Footscray
Deakin University Building H (Business & Law and MIBT Book Shop),College Bookstore,"Building H, 221 Burwood Highway",-37.84882390258912,145.11473959242863,3756,Burwood
Book Frenzy,Bookstore,"500 Chapel St, South Yarra VIC 3141",-37.842818,144.995101,6959,South Yarra
The Book Grocer,Bookstore,,-37.837622,144.995999,6864,South Yarra
Good News Book House,Bookstore,1027 Whitehorse Road,-37.818128338676956,145.12518714621137,5031,Box Hill
Book Affair,Bookstore,287 Smith St,-37.80027,144.9839,8997,Fitzroy
The Book Grocer,Bookstore,286 Brunswick Street,-37.7989,144.9786,9480,Fitzroy
Book Grocer,Bookstore,206 Bourke St,-37.81291,144.96702,9833,Melbourne
The Book Grocer,Bookstore,140 Bourke St,-37.812641,144.969259,9654,Melbourne
The Book Grocer,Bookstore,165 Swanston Street,-37.813913,144.965694,9913,Melbourne
The Book Grocer,Bookstore,455 Bourke Street,-37.81527,144.96054,10311,Melbourne
The Book Grocer,Bookstore,263 High St.,-37.77264,144.99812,9915,Northcote
The Book Grocer,Bookstore,147-149 Russell St,-37.81300678505016,144.9682491466126,9727,Melbourne
The Book Grocer,Bookstore,287 Little Collins St,-37.814927,144.965139,9930,Melbourne
Book Affair,Bookstore,Elgin Street,-37.797352770545274,144.9693607283613,10282,Carlton
Inspiration Adult Book Store,Bookstore,,-37.85731200596345,144.99152721071488,7553,
Sainsbury's Books Pty Ltd,Bookstore,534 Riversdale Road,-37.83192574000541,145.05823390641237,1571,Camberwell
The Book Grocer,Bookstore,201 Spencer St.,-37.81639,144.95261,10959,Docklands
Canterbury Books,Bookstore,,-37.824355,145.081599,1703,
the book grocer,Bookstore,452 Sydney Road,-37.772369384765625,144.96495056152344,12093,
Gold's Book and Gift Company,Bookstore,3-13R William Street,-37.869441,144.993731,7858,Melbourne
Pauline Books & Media,Bookstore,7 Denmark Hill Road,-37.832518,145.054004,1884,
Continental Bookshop,Bookstore,439–443 Burke Road,-37.84556901306103,145.05399152661045,1934,Boroondara
Dirt Cheap Books,Bookstore,,-37.830462831997025,145.0568664156024,1755,Camberwell
Book Affair,Bookstore,,-37.775397,144.960742,12191,
The Book Grocer,Bookstore,415 Elizabeth St.,-37.80918,144.96056,10500,Melbourne
adventist Book Centre,Bookstore,,-37.824233,145.166771,8302,
The Book Grocer,Bookstore,464 Collins St,-37.81787788882015,144.95883841007142,10388,Melbourne
The Book Grocer,Bookstore,452 Sydney Rd.,-37.76746,144.96228,12615,Brunswick
ACU Book Store,College Bookstore,,-37.807676,144.978315,9091,Fitzroy
2nd book shop,Bookstore,,-37.816244,144.968586,9599,
Art Book Fair,Bookstore,NGV Hall,-37.822436,144.969346,9379,Melbourne
Second Hands Book,Bookstore,,-37.81507925425275,144.96803770145902,9680,
Monash Book And Merchandise Store,College Bookstore,,-37.912135,145.133526,9723,Clayton
DUSA Business And Law Bookstore,College Bookstore,221,-37.85108282589254,145.10831731589124,3321,Burwood
the leaf bookshop,Bookstore,,-37.863365,145.0804,2827,Ashburton
Federation Square Book Market,Bookstore,Federation Square,-37.81722927084524,144.96933978173965,11251,Melbourne
Victoria University Book Shop,College Bookstore,"Footscray Park Campus, Ballarat Rd",-37.793017314047184,144.89974780538554,12557,Footscray
The Book Grocer,Bookstore,263 High St.,-37.77264,144.99812,5798,Northcote
The Book Grocer,Bookstore,452 Sydney Rd.,-37.76746,144.96228,6627,Brunswick
the book grocer,Bookstore,452 Sydney Road,-37.772369384765625,144.96495056152344,6921,
Book Affair,Bookstore,,-37.775397,144.960742,7410,
Book Planet,Bookstore,608 Ferntree Gully Rd,-37.9045899741834,145.16252517700195,24409,Wheelers Hill
The Book Grocer,Bookstore,286 Brunswick Street,-37.7989,144.9786,9058,Fitzroy
Book Affair,Bookstore,287 Smith St,-37.80027,144.9839,9074,Fitzroy
Book Grocer,Bookstore,Puckle street,-37.766983,144.922264,9240,Moonee Ponds
Book Affair,Bookstore,Elgin Street,-37.797352770545274,144.9693607283613,9179,Carlton
Blue Guitar Book Shop,Bookstore,,-37.77357,144.971315,6731,
Book Grocer,Bookstore,206 Bourke St,-37.81291,144.96702,10865,Melbourne
The Book Grocer,Bookstore,140 Bourke St,-37.812641,144.969259,10770,Melbourne
The Book Grocer,Bookstore,165 Swanston Street,-37.813913,144.965694,11011,Melbourne
The Book Grocer,Bookstore,455 Bourke Street,-37.81527,144.96054,11319,Melbourne
The Book Grocer,Bookstore,147-149 Russell St,-37.81300678505016,144.9682491466126,10838,Melbourne
The Book Grocer,Bookstore,287 Little Collins St,-37.814927,144.965139,11134,Melbourne
oak st book shop,Bookstore,,-37.722628,144.923902,7581,
The Book Grocer,Bookstore,201 Spencer St.,-37.81639,144.95261,11717,Docklands
The Book Grocer,Bookstore,415 Elizabeth St.,-37.80918,144.96056,10695,Melbourne
The Book Grocer,Bookstore,,-37.837622,144.995999,12996,South Yarra
Book Frenzy,Bookstore,"500 Chapel St, South Yarra VIC 3141",-37.842818,144.995101,13579,South Yarra
The Book Grocer,Bookstore,464 Collins St,-37.81787788882015,144.95883841007142,11644,Melbourne
Collins Bookstore,Bookstore,2-50 Murray Rd,-37.738451536366114,145.02918755224508,2541,Preston
ACU Book Store,College Bookstore,,-37.807676,144.978315,10000,Fitzroy
robinsons bookshop,Bookstore,,-37.739879,145.031252,2781,
Marvel Bookbinding & Printfinishing Pty Ltd,Bookstore,21 Kylta Rd,-37.732456,145.044534,3281,
The Book Grocer,Bookstore,,-37.81669,144.89159,14868,Yarraville
Niddrie Arcade Book Exchange & Stamp Shop,Bookstore,334 Keilor Rd,-37.73701198000026,144.89168705071918,10559,Niddrie
Second Hands Book,Bookstore,,-37.81507925425275,144.96803770145902,11062,
2nd book shop,Bookstore,,-37.816244,144.968586,11168,
Fully Booked,Bookstore,,-37.75324825558141,145.00143704679917,3624,
Campions Books,Bookstore,,-37.732274,145.054382,4091,
Perimeter Books,Bookstore,748 High St,-37.755844,145.0013,3909,Thornbury
Art Book Fair,Bookstore,NGV Hall,-37.822436,144.969346,11802,Melbourne
DARUSSALAM Islamic Bookstore,Bookstore,397 Sydney Road,-37.744392,144.966202,4627,Coburg
Book Planet,Bookstore,608 Ferntree Gully Rd,-37.9045899741834,145.16252517700195,12921,Wheelers Hill
Federation Square Book Market,Bookstore,Federation Square,-37.81722927084524,144.96933978173965,7541,Melbourne
Gold's Book and Gift Company,Bookstore,3-13R William Street,-37.869441,144.993731,2471,Melbourne
Book Frenzy,Bookstore,"500 Chapel St, South Yarra VIC 3141",-37.842818,144.995101,3902,South Yarra
Inspiration Adult Book Store,Bookstore,,-37.85731200596345,144.99152721071488,3056,
Victoria University Book Shop,College Bookstore,"Footscray Park Campus, Ballarat Rd",-37.793017314047184,144.89974780538554,13790,Footscray
The Book Grocer,Bookstore,,-37.837622,144.995999,4336,South Yarra
Books in Print,Bookstore,100 Glenferrie Road,-37.86201866273599,145.02884310381728,1159,Malvern
Book Grocer,Bookstore,206 Bourke St,-37.81291,144.96702,8047,Melbourne
The Book Grocer,Bookstore,140 Bourke St,-37.812641,144.969259,7955,Melbourne
The Book Grocer,Bookstore,455 Bourke Street,-37.81527,144.96054,8200,Melbourne
The Book Grocer,Bookstore,165 Swanston Street,-37.813913,144.965694,8029,Melbourne
Thesaurus Books,Bookstore,29 Church St,-37.91312,144.99373,5314,Brighton
The Book Grocer,Bookstore,287 Little Collins St,-37.814927,144.965139,7970,Melbourne
Book Affair,Bookstore,287 Smith St,-37.80027,144.9839,8531,Fitzroy
The Book Grocer,Bookstore,147-149 Russell St,-37.81300678505016,144.9682491466126,7974,Melbourne
The Book Grocer,Bookstore,286 Brunswick Street,-37.7989,144.9786,8862,Fitzroy
The Book Grocer,Bookstore,201 Spencer St.,-37.81639,144.95261,8585,Docklands
Book Affair,Bookstore,Elgin Street,-37.797352770545274,144.9693607283613,9389,Carlton
The Book Grocer,Bookstore,464 Collins St,-37.81787788882015,144.95883841007142,8085,Melbourne
The Book Grocer,Bookstore,415 Elizabeth St.,-37.80918,144.96056,8722,Melbourne
Book and Paper,Bookstore,36 Douglas Pde.,-37.85779,144.89799,10977,Williamstown
Art Book Fair,Bookstore,NGV Hall,-37.822436,144.969346,7090,Melbourne
The Book Grocer,Bookstore,263 High St.,-37.77264,144.99812,11126,Northcote
Syber's Books,Bookstore,668 Glenhuntly Rd,-37.886503,145.01761,1783,Caulfield
2nd book shop,Bookstore,,-37.816244,144.968586,7668,
Grant's Bookshop,Bookstore,,-37.855404,145.01806,1748,
Out Of Print Books,Bookstore,,-37.886830880867514,145.0203238340852,1786,
Second Hands Book,Bookstore,,-37.81507925425275,144.96803770145902,7800,
the book grocer,Bookstore,452 Sydney Road,-37.772369384765625,144.96495056152344,12046,
Book Affair,Bookstore,,-37.775397,144.960742,11902,
Motor Book World,Bookstore,243 Canterbury Road,-37.82531517663253,145.09208500385284,7989,Canterbury
ACU Book Store,College Bookstore,,-37.807676,144.978315,8002,Fitzroy
Bookhouse,Bookstore,137 Fitzroy St,-37.85924710795372,144.9784987870557,4017,St Kilda
Sunflower Bookshop,Bookstore,434 Glenhuntly Rd,-37.88518,145.00646,2090,Elsternwick
The Book Grocer,Bookstore,,-37.81669,144.89159,12935,Yarraville
Chai Jewish Books & Judaica Outlet,Bookstore,285A Carlisle Street,-37.8692213959954,144.99633014202118,2245,Balaclava
The Book Grocer,Bookstore,452 Sydney Rd.,-37.76746,144.96228,12641,Brunswick
Avenue Bookstore,Bookstore,457 Glen Huntly Rd.,-37.88499,145.006622,2064,Elsternwick
Deakin University Building H (Business & Law and MIBT Book Shop),College Bookstore,"Building H, 221 Burwood Highway",-37.84882390258912,145.11473959242863,8527,Burwood
Victoria University Book Shop,College Bookstore,"Footscray Park Campus, Ballarat Rd",-37.793017314047184,144.89974780538554,10279,Footscray
Federation Square Book Market,Bookstore,Federation Square,-37.81722927084524,144.96933978173965,13442,Melbourne
Book and Paper,Bookstore,36 Douglas Pde.,-37.85779,144.89799,6054,Williamstown
The Book Grocer,Bookstore,,-37.81669,144.89159,7797,Yarraville
The Book Grocer,Bookstore,201 Spencer St.,-37.81639,144.95261,12161,Docklands
The Book Grocer,Bookstore,455 Bourke Street,-37.81527,144.96054,12838,Melbourne
Seddon Book Alley,Bookstore,82 Charles St.,-37.80642,144.89109,8631,Footscray
Book Grocer,Bookstore,206 Bourke St,-37.81291,144.96702,13465,Melbourne
The Book Grocer,Bookstore,165 Swanston Street,-37.813913,144.965694,13311,Melbourne
The Book Grocer,Bookstore,140 Bourke St,-37.812641,144.969259,13655,Melbourne
The Book Grocer,Bookstore,287 Little Collins St,-37.814927,144.965139,13217,Melbourne
Book Grocer,Bookstore,Puckle street,-37.766983,144.922264,13787,Moonee Ponds
Book Planet,Bookstore,608 Ferntree Gully Rd,-37.9045899741834,145.16252517700195,29497,Wheelers Hill
The Book Grocer,Bookstore,147-149 Russell St,-37.81300678505016,144.9682491466126,13557,Melbourne
Book Affair,Bookstore,Elgin Street,-37.797352770545274,144.9693607283613,14501,Carlton
The Book Grocer,Bookstore,464 Collins St,-37.81787788882015,144.95883841007142,12575,Melbourne
The Book Grocer,Bookstore,415 Elizabeth St.,-37.80918,144.96056,13159,Melbourne
Book Frenzy,Bookstore,"500 Chapel St, South Yarra VIC 3141",-37.842818,144.995101,14750,South Yarra
The Book Grocer,Bookstore,286 Brunswick Street,-37.7989,144.9786,15105,Fitzroy
Book Affair,Bookstore,,-37.775397,144.960742,15373,
Book Affair,Bookstore,287 Smith St,-37.80027,144.9839,15435,Fitzroy
The Book Grocer,Bookstore,,-37.837622,144.995999,14945,South Yarra
the book grocer,Bookstore,452 Sydney Road,-37.772369384765625,144.96495056152344,15873,
The Book Grocer,Bookstore,452 Sydney Rd.,-37.76746,144.96228,16072,Brunswick
Inspiration Adult Book Store,Bookstore,,-37.85731200596345,144.99152721071488,14226,
2nd book shop,Bookstore,,-37.816244,144.968586,13427,
Second Hands Book,Bookstore,,-37.81507925425275,144.96803770145902,13439,
Art Book Fair,Bookstore,NGV Hall,-37.822436,144.969346,13212,Melbourne
Enchanted By Books,Bookstore,30 Ferguson St,-37.85898,144.90015,6220,Williamstown
The Book Grocer,Bookstore,263 High St.,-37.77264,144.99812,18138,Northcote
Gold's Book and Gift Company,Bookstore,3-13R William Street,-37.869441,144.993731,14377,Melbourne
ACU Book Store,College Bookstore,,-37.807676,144.978315,14615,Fitzroy
Seagulls Bookshop,Bookstore,141 Nelson Place,-37.86281,144.904585,6560,Melbourne
Books N  Gifts Station,Bookstore,,-37.81401,144.93791,11172,
Thesaurus Books,Bookstore,29 Church St,-37.91312,144.99373,15253,Brighton
Blue Guitar Book Shop,Bookstore,,-37.77357,144.971315,16209,
Williamstown Books,Bookstore,,-37.857543238071294,144.89755712786442,6021,Williamstown
Niddrie Arcade Book Exchange & Stamp Shop,Bookstore,334 Keilor Rd,-37.73701198000026,144.89168705071918,15471,Niddrie
Book Planet,Bookstore,608 Ferntree Gully Rd,-37.9045899741834,145.16252517700195,11743,Wheelers Hill
Federation Square Book Market,Bookstore,Federation Square,-37.81722927084524,144.96933978173965,18281,Melbourne
Dirt Cheap Books,Bookstore,,-37.958658,145.055311,931,Cheltenham
All Books 4 Less,Bookstore,,-37.958242320749946,145.05351777149912,981,
Dirt Cheap Books,Bookstore,,-37.97593539521932,145.06659546218842,1441,
Thesaurus Books,Bookstore,29 Church St,-37.91312,144.99373,8039,Brighton
Mountain Books,Bookstore,,-37.98350397458091,145.06480247700406,2039,Mentone
Victoria University Book Shop,College Bookstore,"Footscray Park Campus, Ballarat Rd",-37.793017314047184,144.89974780538554,23674,Footscray
Beaumaris Books,Bookstore,,-37.98620907832441,145.0342037415323,2793,
Monash Book And Merchandise Store,College Bookstore,,-37.912135,145.133526,9230,Clayton
Book Frenzy,Bookstore,"500 Chapel St, South Yarra VIC 3141",-37.842818,144.995101,14782,South Yarra
The Campus Bookstore,College Bookstore,488 South Road,-37.93621000791059,145.05096673965454,3443,Moorabbin
The Book Grocer,Bookstore,,-37.837622,144.995999,15298,South Yarra
Gold's Book and Gift Company,Bookstore,3-13R William Street,-37.869441,144.993731,12108,Melbourne
Inspiration Adult Book Store,Bookstore,,-37.85731200596345,144.99152721071488,13412,
Benns' Bookshop,Bookstore,,-37.91857822244426,145.04000071720458,5543,Bentleigh
Ulysses bookstore,Bookstore,35 Melrose street,-37.94953191252491,145.0037990091408,4872,Sandringham
Book and Paper,Bookstore,36 Douglas Pde.,-37.85779,144.89799,18363,Williamstown
Book Grocer,Bookstore,206 Bourke St,-37.81291,144.96702,18803,Melbourne
The Book Grocer,Bookstore,140 Bourke St,-37.812641,144.969259,18751,Melbourne
The Book Grocer,Bookstore,455 Bourke Street,-37.81527,144.96054,18807,Melbourne
Deakin University Building H (Business & Law and MIBT Book Shop),College Bookstore,"Building H, 221 Burwood Highway",-37.84882390258912,145.11473959242863,14173,Burwood
The Book Grocer,Bookstore,165 Swanston Street,-37.813913,144.965694,18750,Melbourne
The Book Grocer,Bookstore,287 Little Collins St,-37.814927,144.965139,18668,Melbourne
The Book Grocer,Bookstore,147-149 Russell St,-37.81300678505016,144.9682491466126,18750,Melbourne
Armina Books,Bookstore,7 Audsley Street,-37.93124,145.12185,7113,Clayton South
The Book Grocer,Bookstore,201 Spencer St.,-37.81639,144.95261,19014,Docklands
Book Affair,Bookstore,287 Smith St,-37.80027,144.9839,19575,Fitzroy
The Book Grocer,Bookstore,286 Brunswick Street,-37.7989,144.9786,19872,Fitzroy
Dirt Cheap Books,Bookstore,,-37.899339,145.090049,8147,Oakleigh
Motor Book World,Bookstore,243 Canterbury Road,-37.82531517663253,145.09208500385284,16111,Canterbury
Hyer Discount Books & DVDs,Bookstore,Shop 59 Centro Shopping Ctr Station St,-37.900612,145.090369,8027,Oakleigh
Thesaraus Books,College Bookstore,,-37.91316405346006,144.9935499707919,8046,
Book Affair,Bookstore,Elgin Street,-37.797352770545274,144.9693607283613,20319,Carlton
The Book Grocer,Bookstore,464 Collins St,-37.81787788882015,144.95883841007142,18614,Melbourne
The Book Grocer,Bookstore,415 Elizabeth St.,-37.80918,144.96056,19418,Melbourne
Book Planet,Bookstore,608 Ferntree Gully Rd,-37.9045899741834,145.16252517700195,13758,Wheelers Hill
Federation Square Book Market,Bookstore,Federation Square,-37.81722927084524,144.96933978173965,14060,Melbourne
Good News Book House,Bookstore,1027 Whitehorse Road,-37.818128338676956,145.12518714621137,3708,Box Hill
Motor Book World,Bookstore,243 Canterbury Road,-37.82531517663253,145.09208500385284,5302,Canterbury
Victoria University Book Shop,College Bookstore,"Footscray Park Campus, Ballarat Rd",-37.793017314047184,144.89974780538554,19735,Footscray
adventist Book Centre,Bookstore,,-37.824233,145.166771,5787,
Deakin University Building H (Business & Law and MIBT Book Shop),College Bookstore,"Building H, 221 Burwood Highway",-37.84882390258912,145.11473959242863,7168,Burwood
The Book Grocer,Bookstore,263 High St.,-37.77264,144.99812,11144,Northcote
Book Affair,Bookstore,287 Smith St,-37.80027,144.9839,12429,Fitzroy
The Book Grocer,Bookstore,286 Brunswick Street,-37.7989,144.9786,12872,Fitzroy
Book Frenzy,Bookstore,"500 Chapel St, South Yarra VIC 3141",-37.842818,144.995101,13032,South Yarra
The Book Grocer,Bookstore,,-37.837622,144.995999,12686,South Yarra
Book Grocer,Bookstore,206 Bourke St,-37.81291,144.96702,14143,Melbourne
Book Affair,Bookstore,Elgin Street,-37.797352770545274,144.9693607283613,13661,Carlton
The Book Grocer,Bookstore,140 Bourke St,-37.812641,144.969259,13945,Melbourne
the book grocer,Bookstore,452 Sydney Road,-37.772369384765625,144.96495056152344,14048,
The Book Grocer,Bookstore,165 Swanston Street,-37.813913,144.965694,14282,Melbourne
Book Affair,Bookstore,,-37.775397,144.960742,14388,
Books & more,Bookstore,270 Canterbury Road forest hill,-37.83549663082094,145.16467094421387,6686,
The Book Grocer,Bookstore,452 Sydney Rd.,-37.76746,144.96228,14346,Brunswick
The Book Grocer,Bookstore,455 Bourke Street,-37.81527,144.96054,14758,Melbourne
The Book Grocer,Bookstore,147-149 Russell St,-37.81300678505016,144.9682491466126,14040,Melbourne
The Book Grocer,Bookstore,287 Little Collins St,-37.814927,144.965139,14355,Melbourne
Urartu Books,Bookstore,,-37.818376,145.120444,3746,Box Hill
Xinhua Bookstore Box Hill,Bookstore,,-37.820462,145.123425,3966,
The Book Grocer,Bookstore,201 Spencer St.,-37.81639,144.95261,15465,Docklands
Xin Hua Bookstore,Bookstore,543 Station St,-37.820466,145.1233,3967,Box Hill
The Book Grocer,Bookstore,415 Elizabeth St.,-37.80918,144.96056,14616,Melbourne
Blue Guitar Book Shop,Bookstore,,-37.77357,144.971315,13478,
The Book Grocer,Bookstore,464 Collins St,-37.81787788882015,144.95883841007142,14972,Melbourne
ACU Book Store,College Bookstore,,-37.807676,144.978315,13051,Fitzroy
McLeods Books,Bookstore,,-37.82054634477679,145.17608227097003,6076,
Inspiration Adult Book Store,Bookstore,,-37.85731200596345,144.99152721071488,14159,
Book Grocer,Bookstore,Puckle street,-37.766983,144.922264,17847,Moonee Ponds
Canterbury Books,Bookstore,,-37.824355,145.081599,5758,
2nd book shop,Bookstore,,-37.816244,144.968586,14096,
Second Hands Book,Bookstore,,-37.81507925425275,144.96803770145902,14112,
Monash Book And Merchandise Store,College Bookstore,,-37.912135,145.133526,14196,Clayton
All Books 4 Less,Bookstore,Warringal Shopping Centre,-37.75526531027616,145.07095693582673,5699,Heidelberg
Victoria University Book Shop,College Bookstore,"Footscray Park Campus, Ballarat Rd",-37.793017314047184,144.89974780538554,978,Footscray
Seddon Book Alley,Bookstore,82 Charles St.,-37.80642,144.89109,1148,Footscray
The Book Grocer,Bookstore,,-37.81669,144.89159,1946,Yarraville
Federation Square Book Market,Bookstore,Federation Square,-37.81722927084524,144.96933978173965,6125,Melbourne
Book Grocer,Bookstore,Puckle street,-37.766983,144.922264,4216,Moonee Ponds
The Book Grocer,Bookstore,201 Spencer St.,-37.81639,144.95261,4700,Docklands
The Book Grocer,Bookstore,455 Bourke Street,-37.81527,144.96054,5321,Melbourne
Book Grocer,Bookstore,206 Bourke St,-37.81291,144.96702,5807,Melbourne
The Book Grocer,Bookstore,165 Swanston Street,-37.813913,144.965694,5719,Melbourne
Book Affair,Bookstore,,-37.775397,144.960742,5884,
The Book Grocer,Bookstore,140 Bourke St,-37.812641,144.969259,5993,Melbourne
The Book Grocer,Bookstore,287 Little Collins St,-37.814927,144.965139,5700,Melbourne
Book Affair,Bookstore,Elgin Street,-37.797352770545274,144.9693607283613,5891,Carlton
Book and Paper,Bookstore,36 Douglas Pde.,-37.85779,144.89799,6276,Williamstown
the book grocer,Bookstore,452 Sydney Road,-37.772369384765625,144.96495056152344,6374,
The Book Grocer,Bookstore,415 Elizabeth St.,-37.80918,144.96056,5169,Melbourne
The Book Grocer,Bookstore,147-149 Russell St,-37.81300678505016,144.9682491466126,5914,Melbourne
The Book Grocer,Bookstore,452 Sydney Rd.,-37.76746,144.96228,6477,Brunswick
The Book Grocer,Bookstore,286 Brunswick Street,-37.7989,144.9786,6692,Fitzroy
The Book Grocer,Bookstore,464 Collins St,-37.81787788882015,144.95883841007142,5271,Melbourne
Book Affair,Bookstore,287 Smith St,-37.80027,144.9839,7153,Fitzroy
Burning Books,Bookstore,,-37.803529,144.892964,875,
The Book Grocer,Bookstore,263 High St.,-37.77264,144.99812,8998,Northcote
Book Frenzy,Bookstore,"500 Chapel St, South Yarra VIC 3141",-37.842818,144.995101,9344,South Yarra
Second Hands Book,Bookstore,,-37.81507925425275,144.96803770145902,5950,
Blue Guitar Book Shop,Bookstore,,-37.77357,144.971315,6799,
2nd book shop,Bookstore,,-37.816244,144.968586,6031,
Book Planet,Bookstore,608 Ferntree Gully Rd,-37.9045899741834,145.16252517700195,25566,Wheelers Hill
The Book Grocer,Bookstore,,-37.837622,144.995999,9144,South Yarra
Art Book Fair,Bookstore,NGV Hall,-37.822436,144.969346,6315,Melbourne
ACU Book Store,College Bookstore,,-37.807676,144.978315,6695,Fitzroy
Books N  Gifts Station,Bookstore,,-37.81401,144.93791,3403,
Niddrie Arcade Book Exchange & Stamp Shop,Bookstore,334 Keilor Rd,-37.73701198000026,144.89168705071918,7244,Niddrie
The Sun Bookshop,Bookstore,10 Ballarat Street,-37.81603592782912,144.89099167758232,1910,Yarraville
oak st book shop,Bookstore,,-37.722628,144.923902,8980,
Inspiration Adult Book Store,Bookstore,,-37.85731200596345,144.99152721071488,9986,
Wayward Books,College Bookstore,172 Bellair St,-37.79357,144.92998,2566,Melbourne
Book Planet,Bookstore,608 Ferntree Gully Rd,-37.9045899741834,145.16252517700195,2769,Wheelers Hill
Dymock's Booksellers,Bookstore,,-37.877896,145.166445,369,
Robinsons Bookshop,Bookstore,The Glen Shopping Centre,-37.875887,145.166313,519,Glen Waverley
Monash Book And Merchandise Store,College Bookstore,,-37.912135,145.133526,4437,Clayton
Federation Square Book Market,Bookstore,Federation Square,-37.81722927084524,144.96933978173965,18383,Melbourne
Deakin University Building H (Business & Law and MIBT Book Shop),College Bookstore,"Building H, 221 Burwood Highway",-37.84882390258912,145.11473959242863,5455,Burwood
adventist Book Centre,Bookstore,,-37.824233,145.166771,6185,
Good News Book House,Bookstore,1027 Whitehorse Road,-37.818128338676956,145.12518714621137,7616,Box Hill
Books & more,Bookstore,270 Canterbury Road forest hill,-37.83549663082094,145.16467094421387,4924,
Motor Book World,Bookstore,243 Canterbury Road,-37.82531517663253,145.09208500385284,8686,Canterbury
Mt Waverley Bookshop,Bookstore,,-37.88285738488008,145.1274555714001,3136,
Victoria University Book Shop,College Bookstore,"Footscray Park Campus, Ballarat Rd",-37.793017314047184,144.89974780538554,25070,Footscray
Eastend Booksellers PTY LTD,Bookstore,,-37.89927673339844,145.13902282714844,3025,
Matilda's Books,Bookstore,15 Hamilton Pl.,-37.8761116,145.1276219,3128,Mt Waverley
Book Frenzy,Bookstore,"500 Chapel St, South Yarra VIC 3141",-37.842818,144.995101,15311,South Yarra
The Book Grocer,Bookstore,,-37.837622,144.995999,15401,South Yarra
Co-Op Bookshop,College Bookstore,Monash University,-37.911937596894646,145.13299942016602,4447,Clayton
DUSA Business And Law Bookstore,College Bookstore,221,-37.85108282589254,145.10831731589124,5761,Burwood
McLeods Books,Bookstore,,-37.82054634477679,145.17608227097003,6687,
Book Affair,Bookstore,287 Smith St,-37.80027,144.9839,18053,Fitzroy
Book Grocer,Bookstore,206 Bourke St,-37.81291,144.96702,18758,Melbourne
The Book Grocer,Bookstore,286 Brunswick Street,-37.7989,144.9786,18534,Fitzroy
Inspiration Adult Book Store,Bookstore,,-37.85731200596345,144.99152721071488,15267,
The Book Grocer,Bookstore,140 Bourke St,-37.812641,144.969259,18590,Melbourne
Monash University Bookshop Clayton,College Bookstore,"Campus Centre, Building 10 (Ground Floor)",-37.91231306997665,145.1334233387344,4459,Clayton
The Book Grocer,Bookstore,165 Swanston Street,-37.813913,144.965694,18821,Melbourne
The Book Grocer,Bookstore,455 Bourke Street,-37.81527,144.96054,19182,Melbourne
The Book Grocer,Bookstore,263 High St.,-37.77264,144.99812,18764,Northcote
Gold's Book and Gift Company,Bookstore,3-13R William Street,-37.869441,144.993731,14911,Melbourne
Thesaurus Books,Bookstore,29 Church St,-37.91312,144.99373,15321,Brighton
The Book Grocer,Bookstore,287 Little Collins St,-37.814927,144.965139,18823,Melbourne
The Book Grocer,Bookstore,147-149 Russell St,-37.81300678505016,144.9682491466126,18655,Melbourne
Book Affair,Bookstore,Elgin Street,-37.797352770545274,144.9693607283613,19330,Carlton
Koorong Books,Bookstore,4-8 Vicki St,-37.84094779279677,145.15609484892786,4357,Blackburn Sth
Belgrave Book Barn,Bookstore,,-37.91007901153421,145.35272191626504,17011,Belgrave
The Book Grocer,Bookstore,201 Spencer St.,-37.81639,144.95261,19786,Docklands
Book Grocer,Bookstore,Puckle street,-37.766983,144.922264,288,Moonee Ponds
Victoria University Book Shop,College Bookstore,"Footscray Park Campus, Ballarat Rd",-37.793017314047184,144.89974780538554,3469,Footscray
Federation Square Book Market,Bookstore,Federation Square,-37.81722927084524,144.96933978173965,7211,Melbourne
Book Affair,Bookstore,,-37.775397,144.960742,3798,
The Book Grocer,Bookstore,452 Sydney Rd.,-37.76746,144.96228,3789,Brunswick
the book grocer,Bookstore,452 Sydney Road,-37.772369384765625,144.96495056152344,4083,
Book Affair,Bookstore,Elgin Street,-37.797352770545274,144.9693607283613,5626,Carlton
Collins Booksellers,Bookstore,67 Puckle St,-37.76699,144.92232,293,Moonee Ponds
The Book Grocer,Bookstore,,-37.81669,144.89159,6152,Yarraville
The Book Grocer,Bookstore,286 Brunswick Street,-37.7989,144.9786,6381,Fitzroy
Book Grocer,Bookstore,206 Bourke St,-37.81291,144.96702,6707,Melbourne
The Book Grocer,Bookstore,455 Bourke Street,-37.81527,144.96054,6583,Melbourne
Niddrie Arcade Book Exchange & Stamp Shop,Bookstore,334 Keilor Rd,-37.73701198000026,144.89168705071918,4031,Niddrie
The Book Grocer,Bookstore,201 Spencer St.,-37.81639,144.95261,6336,Docklands
Blue Guitar Book Shop,Bookstore,,-37.77357,144.971315,4658,
The Book Grocer,Bookstore,140 Bourke St,-37.812641,144.969259,6810,Melbourne
The Book Grocer,Bookstore,165 Swanston Street,-37.813913,144.965694,6723,Melbourne
Book Affair,Bookstore,287 Smith St,-37.80027,144.9839,6851,Fitzroy
The Book Grocer,Bookstore,287 Little Collins St,-37.814927,144.965139,6784,Melbourne
The Book Grocer,Bookstore,147-149 Russell St,-37.81300678505016,144.9682491466126,6784,Melbourne
The Book Grocer,Bookstore,263 High St.,-37.77264,144.99812,6979,Northcote
The Book Grocer,Bookstore,415 Elizabeth St.,-37.80918,144.96056,6031,Melbourne
oak st book shop,Bookstore,,-37.722628,144.923902,4838,
Seddon Book Alley,Bookstore,82 Charles St.,-37.80642,144.89109,5143,Footscray
The Book Grocer,Bookstore,464 Collins St,-37.81787788882015,144.95883841007142,6749,Melbourne
Book and Paper,Bookstore,36 Douglas Pde.,-37.85779,144.89799,10394,Williamstown
Book Planet,Bookstore,608 Ferntree Gully Rd,-37.9045899741834,145.16252517700195,26375,Wheelers Hill
ACU Book Store,College Bookstore,,-37.807676,144.978315,6970,Fitzroy
Second Hands Book,Bookstore,,-37.81507925425275,144.96803770145902,6952,
2nd book shop,Bookstore,,-37.816244,144.968586,7084,
Book Frenzy,Bookstore,"500 Chapel St, South Yarra VIC 3141",-37.842818,144.995101,10850,South Yarra
The Book Grocer,Bookstore,,-37.837622,144.995999,10451,South Yarra
Art Book Fair,Bookstore,NGV Hall,-37.822436,144.969346,7679,Melbourne
Robinsons Bookshops Highpoint,Bookstore,Rosamond Rd,-37.77558282969414,144.8883557193065,2923,Maribrynong
Wayward Books,College Bookstore,172 Bellair St,-37.79357,144.92998,3217,Melbourne
Victoria University Book Shop,College Bookstore,"Footscray Park Campus, Ballarat Rd",-37.793017314047184,144.89974780538554,7803,Footscray
The Book Grocer,Bookstore,452 Sydney Rd.,-37.76746,144.96228,2509,Brunswick
Federation Square Book Market,Bookstore,Federation Square,-37.81722927084524,144.96933978173965,8055,Melbourne
the book grocer,Bookstore,452 Sydney Road,-37.772369384765625,144.96495056152344,3049,
Book Affair,Bookstore,,-37.775397,144.960742,3401,
DARUSSALAM Islamic Bookstore,Bookstore,397 Sydney Road,-37.744392,144.966202,176,Coburg
Blue Guitar Book Shop,Bookstore,,-37.77357,144.971315,3241,
Book Grocer,Bookstore,Puckle street,-37.766983,144.922264,4439,Moonee Ponds
The Book Grocer,Bookstore,263 High St.,-37.77264,144.99812,4280,Northcote
Golden Bowl Books,Bookstore,Sydney Road,-37.747663,144.965703,322,Coburg
Book Affair,Bookstore,Elgin Street,-37.797352770545274,144.9693607283613,5847,Carlton
The Book Grocer,Bookstore,286 Brunswick Street,-37.7989,144.9786,6132,Fitzroy
Book Affair,Bookstore,287 Smith St,-37.80027,144.9839,6391,Fitzroy
oak st book shop,Bookstore,,-37.722628,144.923902,4342,
Book Grocer,Bookstore,206 Bourke St,-37.81291,144.96702,7566,Melbourne
The Book Grocer,Bookstore,140 Bourke St,-37.812641,144.969259,7544,Melbourne
The Book Grocer,Bookstore,455 Bourke Street,-37.81527,144.96054,7832,Melbourne
The Book Grocer,Bookstore,165 Swanston Street,-37.813913,144.965694,7675,Melbourne
The Book Grocer,Bookstore,147-149 Russell St,-37.81300678505016,144.9682491466126,7581,Melbourne
The Book Grocer,Bookstore,287 Little Collins St,-37.814927,144.965139,7787,Melbourne
The Book Grocer,Bookstore,201 Spencer St.,-37.81639,144.95261,8016,Docklands
The Book Grocer,Bookstore,415 Elizabeth St.,-37.80918,144.96056,7154,Melbourne
Book Planet,Bookstore,608 Ferntree Gully Rd,-37.9045899741834,145.16252517700195,24887,Wheelers Hill
The Book Grocer,Bookstore,,-37.81669,144.89159,10231,Yarraville
The Book Grocer,Bookstore,464 Collins St,-37.81787788882015,144.95883841007142,8129,Melbourne
Niddrie Arcade Book Exchange & Stamp Shop,Bookstore,334 Keilor Rd,-37.73701198000026,144.89168705071918,6455,Niddrie
ACU Book Store,College Bookstore,,-37.807676,144.978315,7087,Fitzroy
IBC (Islamic Books & Clothing),Bookstore,207/211 Sydney Road,-37.758728010420455,144.96535406446293,1533,Coburg
The Book Grocer,Bookstore,,-37.837622,144.995999,10682,South Yarra
Book Frenzy,Bookstore,"500 Chapel St, South Yarra VIC 3141",-37.842818,144.995101,11223,South Yarra
Second Hands Book,Bookstore,,-37.81507925425275,144.96803770145902,7810,
2nd book shop,Bookstore,,-37.816244,144.968586,7942,
Art Book Fair,Bookstore,NGV Hall,-37.822436,144.969346,8634,Melbourne
Seddon Book Alley,Bookstore,82 Charles St.,-37.80642,144.89109,9397,Footscray
Book and Paper,Bookstore,36 Douglas Pde.,-37.85779,144.89799,13847,Williamstown
Perimeter Books,Bookstore,748 High St,-37.755844,145.0013,3471,Thornbury
Fully Booked,Bookstore,,-37.75324825558141,145.00143704679917,3393,
Red Wheelbarrow Books,Bookstore,,-37.7752039147089,144.9712861461478,3420,
adventist Book Centre,Bookstore,,-37.824233,145.166771,853,
McLeods Books,Bookstore,,-37.82054634477679,145.17608227097003,77,
Book Planet,Bookstore,608 Ferntree Gully Rd,-37.9045899741834,145.16252517700195,9432,Wheelers Hill
Good News Book House,Bookstore,1027 Whitehorse Road,-37.818128338676956,145.12518714621137,4406,Box Hill
Books & more,Bookstore,270 Canterbury Road forest hill,-37.83549663082094,145.16467094421387,1914,
Federation Square Book Market,Bookstore,Federation Square,-37.81722927084524,144.96933978173965,18107,Melbourne
Deakin University Building H (Business & Law and MIBT Book Shop),College Bookstore,"Building H, 221 Burwood Highway",-37.84882390258912,145.11473959242863,6183,Burwood
Motor Book World,Bookstore,243 Canterbury Road,-37.82531517663253,145.09208500385284,7329,Canterbury
House Of Books,Bookstore,,-37.816061,145.194668,1779,Mitcham
Victoria University Book Shop,College Bookstore,"Footscray Park Campus, Ballarat Rd",-37.793017314047184,144.89974780538554,24418,Footscray
Monash Book And Merchandise Store,College Bookstore,,-37.912135,145.133526,10843,Clayton
Book Frenzy,Bookstore,"500 Chapel St, South Yarra VIC 3141",-37.842818,144.995101,16030,South Yarra
Xinhua Bookstore Box Hill,Bookstore,,-37.820462,145.123425,4553,
The Book Grocer,Bookstore,,-37.837622,144.995999,15872,South Yarra
The Book Grocer,Bookstore,263 High St.,-37.77264,144.99812,16461,Northcote
Xin Hua Bookstore,Bookstore,543 Station St,-37.820466,145.1233,4564,Box Hill
Book Affair,Bookstore,287 Smith St,-37.80027,144.9839,16974,Fitzroy
robinsons bookshop eastland,Bookstore,,-37.814567,145.228963,4772,Ringwood
Urartu Books,Bookstore,,-37.818376,145.120444,4821,Box Hill
The Book Grocer,Bookstore,286 Brunswick Street,-37.7989,144.9786,17457,Fitzroy
Koorong Books,Bookstore,4-8 Vicki St,-37.84094779279677,145.15609484892786,2834,Blackburn Sth
Book Grocer,Bookstore,206 Bourke St,-37.81291,144.96702,18327,Melbourne
Dymock's Booksellers,Bookstore,,-37.877896,145.166445,6441,
The Book Grocer,Bookstore,140 Bourke St,-37.812641,144.969259,18132,Melbourne
DUSA Business And Law Bookstore,College Bookstore,221,-37.85108282589254,145.10831731589124,6798,Burwood
Robinsons Bookshop,Bookstore,The Glen Shopping Centre,-37.875887,145.166313,6220,Glen Waverley
Book Affair,Bookstore,Elgin Street,-37.797352770545274,144.9693607283613,18285,Carlton
The Book Grocer,Bookstore,165 Swanston Street,-37.813913,144.965694,18438,Melbourne
The Book Grocer,Bookstore,455 Bourke Street,-37.81527,144.96054,18886,Melbourne
The Book Grocer,Bookstore,147-149 Russell St,-37.81300678505016,144.9682491466126,18218,Melbourne
The Book Grocer,Bookstore,287 Little Collins St,-37.814927,144.965139,18483,Melbourne
the book grocer,Bookstore,452 Sydney Road,-37.772369384765625,144.96495056152344,19254,
Book Affair,Bookstore,,-37.775397,144.960742,19520,
Matilda's Books,Bookstore,15 Hamilton Pl.,-37.8761116,145.1276219,7476,Mt Waverley
The Book Grocer,Bookstore,452 Sydney Rd.,-37.76746,144.96228,19637,Brunswick
Inspiration Adult Book Store,Bookstore,,-37.85731200596345,144.99152721071488,16661,
Victoria University Book Shop,College Bookstore,"Footscray Park Campus, Ballarat Rd",-37.793017314047184,144.89974780538554,5932,Footscray
Federation Square Book Market,Bookstore,Federation Square,-37.81722927084524,144.96933978173965,12456,Melbourne
The Book Grocer,Bookstore,,-37.81669,144.89159,6087,Yarraville
Book Grocer,Bookstore,Puckle street,-37.766983,144.922264,8231,Moonee Ponds
Seddon Book Alley,Bookstore,82 Charles St.,-37.80642,144.89109,5534,Footscray
Book and Paper,Bookstore,36 Douglas Pde.,-37.85779,144.89799,9656,Williamstown
Book Affair,Bookstore,,-37.775397,144.960742,11362,
The Book Grocer,Bookstore,201 Spencer St.,-37.81639,144.95261,11015,Docklands
The Book Grocer,Bookstore,455 Bourke Street,-37.81527,144.96054,11652,Melbourne
the book grocer,Bookstore,452 Sydney Road,-37.772369384765625,144.96495056152344,11775,
Book Grocer,Bookstore,206 Bourke St,-37.81291,144.96702,12141,Melbourne
Niddrie Arcade Book Exchange & Stamp Shop,Bookstore,334 Keilor Rd,-37.73701198000026,144.89168705071918,7705,Niddrie
The Book Grocer,Bookstore,452 Sydney Rd.,-37.76746,144.96228,11638,Brunswick
The Book Grocer,Bookstore,165 Swanston Street,-37.813913,144.965694,12054,Melbourne
Book Affair,Bookstore,Elgin Street,-37.797352770545274,144.9693607283613,12074,Carlton
The Book Grocer,Bookstore,140 Bourke St,-37.812641,144.969259,12326,Melbourne
The Book Grocer,Bookstore,287 Little Collins St,-37.814927,144.965139,12034,Melbourne
The Book Grocer,Bookstore,286 Brunswick Street,-37.7989,144.9786,12899,Fitzroy
The Book Grocer,Bookstore,147-149 Russell St,-37.81300678505016,144.9682491466126,12249,Melbourne
The Book Grocer,Bookstore,415 Elizabeth St.,-37.80918,144.96056,11497,Melbourne
Book Affair,Bookstore,287 Smith St,-37.80027,144.9839,13378,Fitzroy
The Book Grocer,Bookstore,464 Collins St,-37.81787788882015,144.95883841007142,11587,Melbourne
The Book Grocer,Bookstore,263 High St.,-37.77264,144.99812,14664,Northcote
oak st book shop,Bookstore,,-37.722628,144.923902,10848,
Blue Guitar Book Shop,Bookstore,,-37.77357,144.971315,12311,
Book Frenzy,Bookstore,"500 Chapel St, South Yarra VIC 3141",-37.842818,144.995101,15534,South Yarra
Book Planet,Bookstore,608 Ferntree Gully Rd,-37.9045899741834,145.16252517700195,31768,Wheelers Hill
The Book Grocer,Bookstore,,-37.837622,144.995999,15391,South Yarra
Second Hands Book,Bookstore,,-37.81507925425275,144.96803770145902,12285,
2nd book shop,Bookstore,,-37.816244,144.968586,12364,
Burning Books,Bookstore,,-37.803529,144.892964,5580,
Art Book Fair,Bookstore,NGV Hall,-37.822436,144.969346,12620,Melbourne
ACU Book Store,College Bookstore,,-37.807676,144.978315,13001,Fitzroy
Robinsons Bookshops Highpoint,Bookstore,Rosamond Rd,-37.77558282969414,144.8883557193065,5099,Maribrynong
The Sun Bookshop,Bookstore,10 Ballarat Street,-37.81603592782912,144.89099167758232,6004,Yarraville
Inspiration Adult Book Store,Bookstore,,-37.85731200596345,144.99152721071488,15958,
Barricade Anarchist Books and Info Shop,Bookstore,62 St George Street,-37.72168983158128,144.7687524444879,9285,Melbourne
Book Planet,Bookstore,608 Ferntree Gully Rd,-37.9045899741834,145.16252517700195,28311,Wheelers Hill
Collins Books,Bookstore,,-38.042259,145.32465,8077,Berwick
Belgrave Book Barn,Bookstore,,-37.91007901153421,145.35272191626504,18138,Belgrave
Belgrave Book Barn,Bookstore,Burwood Highway,-37.90946232077751,145.35263007550097,18206,Belgrave
Collins Booksellers,Bookstore,352 Princes Hwy,-38.01926385363113,145.30552320376327,10671,Narre Warren
Daisy Boots Book Shop,Bookstore,385 Mount Dandenong Tourist Road,-37.86232,145.35386,23262,Sassafras
Monash Book And Merchandise Store,College Bookstore,,-37.912135,145.133526,29827,Clayton
Urartu Books,Bookstore,,-37.99289,145.173144,22449,
Boronia Bargain Books,Bookstore,,-37.860496,145.286736,25393,Boronia
All Books 4 Less,Bookstore,Karingal Hub,-38.152546,145.166076,23553,
Rainy Day Books,Bookstore,,-37.855382,145.315948,24932,
the teacher resource book shop,Bookstore,,-38.3077507019043,145.18878173828125,33207,
Studio Rosa Bookshop & Florist,Bookstore,,-38.10321426925993,145.12625938716656,25338,
Federation Square Book Market,Bookstore,Federation Square,-37.81722927084524,144.96933978173965,47708,Melbourne
adventist Book Centre,Bookstore,,-37.824233,145.166771,34466,
Lilydale Book Barn,Bookstore,,-37.757909,145.351277,34733,
Farrells Book Store,Bookstore,,-38.22095095137611,145.03944630030514,36852,
Deakin University Building H (Business & Law and MIBT Book Shop),College Bookstore,"Building H, 221 Burwood Highway",-37.84882390258912,145.11473959242863,35565,Burwood
Good News Book House,Bookstore,1027 Whitehorse Road,-37.818128338676956,145.12518714621137,37354,Box Hill
Dymock's Booksellers,Bookstore,,-37.877896,145.166445,30043,
Motor Book World,Bookstore,243 Canterbury Road,-37.82531517663253,145.09208500385284,38810,Canterbury
Victoria University Book Shop,College Bookstore,"Footscray Park Campus, Ballarat Rd",-37.793017314047184,144.89974780538554,54270,Footscray
Thesaurus Books,Bookstore,29 Church St,-37.91312,144.99373,40432,Brighton
Book Frenzy,Bookstore,"500 Chapel St, South Yarra VIC 3141",-37.842818,144.995101,44219,South Yarra
The Book Grocer,Bookstore,,-37.837622,144.995999,44483,South Yarra
McLeods Books,Bookstore,,-37.82054634477679,145.17608227097003,34289,
Inspiration Adult Book Store,Bookstore,,-37.85731200596345,144.99152721071488,43593,
Book Planet,Bookstore,608 Ferntree Gully Rd,-37.9045899741834,145.16252517700195,18466,Wheelers Hill
Collins Booksellers,Bookstore,352 Princes Hwy,-38.01926385363113,145.30552320376327,948,Narre Warren
Collins Books,Bookstore,,-38.042259,145.32465,2457,Berwick
Belgrave Book Barn,Bookstore,,-37.91007901153421,145.35272191626504,13779,Belgrave
Belgrave Book Barn,Bookstore,Burwood Highway,-37.90946232077751,145.35263007550097,13842,Belgrave
Daisy Boots Book Shop,Bookstore,385 Mount Dandenong Tourist Road,-37.86232,145.35386,18926,Sassafras
Monash Book And Merchandise Store,College Bookstore,,-37.912135,145.133526,19702,Clayton
Urartu Books,Bookstore,,-37.99289,145.173144,12080,
Federation Square Book Market,Bookstore,Federation Square,-37.81722927084524,144.96933978173965,37555,Melbourne
Notions Unlimited Bookshop,Bookstore,9/426 Nepean Hwy.,-38.05378,145.11638,16671,Chelsea
adventist Book Centre,Bookstore,,-37.824233,145.166771,25635,
Studio Rosa Bookshop & Florist,Bookstore,,-38.10321426925993,145.12625938716656,17674,
Deakin University Building H (Business & Law and MIBT Book Shop),College Bookstore,"Building H, 221 Burwood Highway",-37.84882390258912,145.11473959242863,25909,Burwood
Dymock's Booksellers,Bookstore,,-37.877896,145.166445,20565,
Good News Book House,Bookstore,1027 Whitehorse Road,-37.818128338676956,145.12518714621137,28098,Box Hill
Victoria University Book Shop,College Bookstore,"Footscray Park Campus, Ballarat Rd",-37.793017314047184,144.89974780538554,44050,Footscray
Motor Book World,Bookstore,243 Canterbury Road,-37.82531517663253,145.09208500385284,29195,Canterbury
Thesaurus Books,Bookstore,29 Church St,-37.91312,144.99373,30035,Brighton
Book Frenzy,Bookstore,"500 Chapel St, South Yarra VIC 3141",-37.842818,144.995101,34016,South Yarra
Farrells Book Store,Bookstore,,-38.22095095137611,145.03944630030514,31594,
Lilydale Book Barn,Bookstore,,-37.757909,145.351277,30318,
The Book Grocer,Bookstore,,-37.837622,144.995999,34308,South Yarra
Inspiration Adult Book Store,Bookstore,,-37.85731200596345,144.99152721071488,33320,
Gold's Book and Gift Company,Bookstore,3-13R William Street,-37.869441,144.993731,32406,Melbourne
the teacher resource book shop,Bookstore,,-38.3077507019043,145.18878173828125,32759,
McLeods Books,Bookstore,,-37.82054634477679,145.17608227097003,25631,
Book Planet,Bookstore,608 Ferntree Gully Rd,-37.9045899741834,145.16252517700195,27445,Wheelers Hill
All Books 4 Less,Bookstore,Karingal Hub,-38.152546,145.166076,2079,
All books 4 less,Bookstore,Bayside shopping centre,-38.140618115809595,145.12308042064691,2028,Frankston
Robinson's Bookshop,Bookstore,3 Station St,-38.142798703808495,145.124141858981,1824,Frankston
Farrells Book Store,Bookstore,,-38.22095095137611,145.03944630030514,11936,
Studio Rosa Bookshop & Florist,Bookstore,,-38.10321426925993,145.12625938716656,5465,
Books By The Bay,Bookstore,725 Esplanade,-38.226158,145.030088,12935,Mornington
Word&Page Books,Bookstore,,-38.23333701612781,145.17123901720106,9544,
the teacher resource book shop,Bookstore,,-38.3077507019043,145.18878173828125,17953,
Notions Unlimited Bookshop,Bookstore,9/426 Nepean Hwy.,-38.05378,145.11638,11020,Chelsea
Federation Square Book Market,Bookstore,Federation Square,-37.81722927084524,144.96933978173965,40101,Melbourne
Monash Book And Merchandise Store,College Bookstore,,-37.912135,145.133526,26561,Clayton
Thesaurus Books,Bookstore,29 Church St,-37.91312,144.99373,29480,Brighton
Victoria University Book Shop,College Bookstore,"Footscray Park Campus, Ballarat Rd",-37.793017314047184,144.89974780538554,45148,Footscray
Belgrave Book Barn,Bookstore,,-37.91007901153421,145.35272191626504,32512,Belgrave
Belgrave Book Barn,Bookstore,Burwood Highway,-37.90946232077751,145.35263007550097,32564,Belgrave
Book Frenzy,Bookstore,"500 Chapel St, South Yarra VIC 3141",-37.842818,144.995101,36622,South Yarra
The Book Grocer,Bookstore,,-37.837622,144.995999,37137,South Yarra
Gold's Book and Gift Company,Bookstore,3-13R William Street,-37.869441,144.993731,33910,Melbourne
Deakin University Building H (Business & Law and MIBT Book Shop),College Bookstore,"Building H, 221 Burwood Highway",-37.84882390258912,145.11473959242863,33685,Burwood
Inspiration Adult Book Store,Bookstore,,-37.85731200596345,144.99152721071488,35233,
Book and Paper,Bookstore,36 Douglas Pde.,-37.85779,144.89799,39018,Williamstown
Book Grocer,Bookstore,206 Bourke St,-37.81291,144.96702,40623,Melbourne
The Book Grocer,Bookstore,455 Bourke Street,-37.81527,144.96054,40600,Melbourne
The Book Grocer,Bookstore,140 Bourke St,-37.812641,144.969259,40577,Melbourne
adventist Book Centre,Bookstore,,-37.824233,145.166771,36397,
Book Planet,Bookstore,608 Ferntree Gully Rd,-37.9045899741834,145.16252517700195,10306,Wheelers Hill
Monash Book And Merchandise Store,College Bookstore,,-37.912135,145.133526,11011,Clayton
Urartu Books,Bookstore,,-37.99289,145.173144,3703,
Belgrave Book Barn,Bookstore,,-37.91007901153421,145.35272191626504,14861,Belgrave
Belgrave Book Barn,Bookstore,Burwood Highway,-37.90946232077751,145.35263007550097,14894,Belgrave
Federation Square Book Market,Bookstore,Federation Square,-37.81722927084524,144.96933978173965,28706,Melbourne
Collins Booksellers,Bookstore,352 Princes Hwy,-38.01926385363113,145.30552320376327,8709,Narre Warren
Deakin University Building H (Business & Law and MIBT Book Shop),College Bookstore,"Building H, 221 Burwood Highway",-37.84882390258912,145.11473959242863,17761,Burwood
Armina Books,Bookstore,7 Audsley Street,-37.93124,145.12185,10283,Clayton South
Daisy Boots Book Shop,Bookstore,385 Mount Dandenong Tourist Road,-37.86232,145.35386,18527,Sassafras
adventist Book Centre,Bookstore,,-37.824233,145.166771,18656,
Co-Op Bookshop,College Bookstore,Monash University,-37.911937596894646,145.13299942016602,11058,Clayton
Collins Books,Bookstore,,-38.042259,145.32465,11401,Berwick
Victoria University Book Shop,College Bookstore,"Footscray Park Campus, Ballarat Rd",-37.793017314047184,144.89974780538554,35137,Footscray
Eastend Booksellers PTY LTD,Bookstore,,-37.89927673339844,145.13902282714844,11860,
Notions Unlimited Bookshop,Bookstore,9/426 Nepean Hwy.,-38.05378,145.11638,11355,Chelsea
Dymock's Booksellers,Bookstore,,-37.877896,145.166445,12917,
Good News Book House,Bookstore,1027 Whitehorse Road,-37.818128338676956,145.12518714621137,20430,Box Hill
Thesaurus Books,Bookstore,29 Church St,-37.91312,144.99373,21097,Brighton
Motor Book World,Bookstore,243 Canterbury Road,-37.82531517663253,145.09208500385284,21025,Canterbury
Robinsons Bookshop,Bookstore,The Glen Shopping Centre,-37.875887,145.166313,13132,Glen Waverley
Book Frenzy,Bookstore,"500 Chapel St, South Yarra VIC 3141",-37.842818,144.995101,25131,South Yarra
Dirt Cheap Books,Bookstore,,-37.97593539521932,145.06659546218842,13066,
Mountain Books,Bookstore,,-37.98350397458091,145.06480247700406,13167,Mentone
Monash University Bookshop Clayton,College Bookstore,"Campus Centre, Building 10 (Ground Floor)",-37.91231306997665,145.1334233387344,11002,Clayton
The Book Grocer,Bookstore,,-37.837622,144.995999,25447,South Yarra
Inspiration Adult Book Store,Bookstore,,-37.85731200596345,144.99152721071488,24379,
Gold's Book and Gift Company,Bookstore,3-13R William Street,-37.869441,144.993731,23440,Melbourne
Book Grocer,Bookstore,206 Bourke St,-37.81291,144.96702,29178,Melbourne
The Book Grocer,Bookstore,140 Bourke St,-37.812641,144.969259,29051,Melbourne
Book Affair,Bookstore,287 Smith St,-37.80027,144.9839,29081,Fitzroy
Books N Gifts Station,Bookstore,"Broadmeadows Shopping Centre, 1099-1169 Pascoe Vale Rd",-37.680993,144.918923,224,Broadmeadows
Victoria University Book Shop,College Bookstore,"Footscray Park Campus, Ballarat Rd",-37.793017314047184,144.89974780538554,12377,Footscray
All Books 4 Less,Bookstore,Broadmeadows Shopping Centre,-37.68115895557171,144.9196700968004,198,Broadmeadows
Federation Square Book Market,Bookstore,Federation Square,-37.81722927084524,144.96933978173965,15577,Melbourne
oak st book shop,Bookstore,,-37.722628,144.923902,4434,
Book Grocer,Bookstore,Puckle street,-37.766983,144.922264,9358,Moonee Ponds
The Book Grocer,Bookstore,452 Sydney Rd.,-37.76746,144.96228,10132,Brunswick
Niddrie Arcade Book Exchange & Stamp Shop,Bookstore,334 Keilor Rd,-37.73701198000026,144.89168705071918,6501,Niddrie
the book grocer,Bookstore,452 Sydney Road,-37.772369384765625,144.96495056152344,10727,
Book Affair,Bookstore,,-37.775397,144.960742,10911,
The Book Grocer,Bookstore,263 High St.,-37.77264,144.99812,12146,Northcote
Book Affair,Bookstore,Elgin Street,-37.797352770545274,144.9693607283613,13469,Carlton
The Book Grocer,Bookstore,286 Brunswick Street,-37.7989,144.9786,13915,Fitzroy
Blue Guitar Book Shop,Bookstore,,-37.77357,144.971315,11069,
Book Affair,Bookstore,287 Smith St,-37.80027,144.9839,14235,Fitzroy
Book Grocer,Bookstore,206 Bourke St,-37.81291,144.96702,15058,Melbourne
The Book Grocer,Bookstore,,-37.81669,144.89159,15091,Yarraville
The Book Grocer,Bookstore,140 Bourke St,-37.812641,144.969259,15086,Melbourne
The Book Grocer,Bookstore,455 Bourke Street,-37.81527,144.96054,15165,Melbourne
The Book Grocer,Bookstore,165 Swanston Street,-37.813913,144.965694,15134,Melbourne
The Book Grocer,Bookstore,201 Spencer St.,-37.81639,144.95261,15137,Docklands
The Book Grocer,Bookstore,287 Little Collins St,-37.814927,144.965139,15230,Melbourne
The Book Grocer,Bookstore,147-149 Russell St,-37.81300678505016,144.9682491466126,15099,Melbourne
The Book Grocer,Bookstore,415 Elizabeth St.,-37.80918,144.96056,14508,Melbourne
Book Planet,Bookstore,608 Ferntree Gully Rd,-37.9045899741834,145.16252517700195,32642,Wheelers Hill
Dirt Cheap Books,Bookstore,Matthews ave,-37.723615,144.890861,5186,Airport west
The Book Grocer,Bookstore,464 Collins St,-37.81787788882015,144.95883841007142,15413,Melbourne
Outlet Books,Bookstore,"DFO Essendon, 100 Bulla Rd",-37.73260915667894,144.908766746521,5610,Essendon
Seddon Book Alley,Bookstore,82 Charles St.,-37.80642,144.89109,13972,Footscray
ACU Book Store,College Bookstore,,-37.807676,144.978315,14817,Fitzroy
Book Frenzy,Bookstore,"500 Chapel St, South Yarra VIC 3141",-37.842818,144.995101,18998,South Yarra
The Book Grocer,Bookstore,,-37.837622,144.995999,18486,South Yarra
Book and Paper,Bookstore,36 Douglas Pde.,-37.85779,144.89799,19556,Williamstown
Second Hands Book,Bookstore,,-37.81507925425275,144.96803770145902,15315,
2nd book shop,Bookstore,,-37.816244,144.968586,15453,
DARUSSALAM Islamic Bookstore,Bookstore,397 Sydney Road,-37.744392,144.966202,7978,Coburg
Golden Bowl Books,Bookstore,Sydney Road,-37.747663,144.965703,8271,Coburg
Book Planet,Bookstore,608 Ferntree Gully Rd,-37.9045899741834,145.16252517700195,6230,Wheelers Hill
Booked Up,Bookstore,"Knox City, 425 Burwood Hwy",-37.868678369112814,145.24093213175337,1779,Wantirna South
adventist Book Centre,Bookstore,,-37.824233,145.166771,7333,
Monash Book And Merchandise Store,College Bookstore,,-37.912135,145.133526,8847,Clayton
Federation Square Book Market,Bookstore,Federation Square,-37.81722927084524,144.96933978173965,23063,Melbourne
Bookworld,Bookstore,,-37.861666,145.286248,5826,Boronia
Deakin University Building H (Business & Law and MIBT Book Shop),College Bookstore,"Building H, 221 Burwood Highway",-37.84882390258912,145.11473959242863,9806,Burwood
Books & more,Bookstore,270 Canterbury Road forest hill,-37.83549663082094,145.16467094421387,6583,
Good News Book House,Bookstore,1027 Whitehorse Road,-37.818128338676956,145.12518714621137,10509,Box Hill
Belgrave Book Barn,Bookstore,,-37.91007901153421,145.35272191626504,12194,Belgrave
Daisy Boots Book Shop,Bookstore,385 Mount Dandenong Tourist Road,-37.86232,145.35386,11679,Sassafras
Boronia Bargain Books,Bookstore,,-37.860496,145.286736,5899,Boronia
Belgrave Book Barn,Bookstore,Burwood Highway,-37.90946232077751,145.35263007550097,12164,Belgrave
Dymock's Booksellers,Bookstore,,-37.877896,145.166445,4880,
Motor Book World,Bookstore,243 Canterbury Road,-37.82531517663253,145.09208500385284,12610,Canterbury
Robinsons Bookshop,Bookstore,The Glen Shopping Centre,-37.875887,145.166313,4876,Glen Waverley
McLeods Books,Bookstore,,-37.82054634477679,145.17608227097003,7158,
Victoria University Book Shop,College Bookstore,"Footscray Park Campus, Ballarat Rd",-37.793017314047184,144.89974780538554,29703,Footscray
House Of Books,Bookstore,,-37.816061,145.194668,6853,Mitcham
robinsons bookshop eastland,Bookstore,,-37.814567,145.228963,6623,Ringwood
Mt Waverley Bookshop,Bookstore,,-37.88285738488008,145.1274555714001,8346,
Eastend Booksellers PTY LTD,Bookstore,,-37.89927673339844,145.13902282714844,7801,
Book Frenzy,Bookstore,"500 Chapel St, South Yarra VIC 3141",-37.842818,144.995101,20216,South Yarra
Matilda's Books,Bookstore,15 Hamilton Pl.,-37.8761116,145.1276219,8274,Mt Waverley
Rainy Day Books,Bookstore,,-37.855382,145.315948,8528,
The Book Grocer,Bookstore,,-37.837622,144.995999,20246,South Yarra
Lilydale Book Barn,Bookstore,,-37.757909,145.351277,17209,
Book Affair,Bookstore,287 Smith St,-37.80027,144.9839,22454,Fitzroy
Koorong Books,Bookstore,4-8 Vicki St,-37.84094779279677,145.15609484892786,6830,Blackburn Sth
The Book Grocer,Bookstore,286 Brunswick Street,-37.7989,144.9786,22944,Fitzroy
Book Grocer,Bookstore,206 Bourke St,-37.81291,144.96702,23395,Melbourne
The Book Grocer,Bookstore,263 High St.,-37.77264,144.99812,22659,Northcote
The Book Grocer,Bookstore,140 Bourke St,-37.812641,144.969259,23216,Melbourne
Monash University Bookshop Clayton,College Bookstore,"Campus Centre, Building 10 (Ground Floor)",-37.91231306997665,145.1334233387344,8865,Clayton
Inspiration Adult Book Store,Bookstore,,-37.85731200596345,144.99152721071488,20314,
Book Planet,Bookstore,608 Ferntree Gully Rd,-37.9045899741834,145.16252517700195,12886,Wheelers Hill
adventist Book Centre,Bookstore,,-37.824233,145.166771,7473,
robinsons bookshop eastland,Bookstore,,-37.814567,145.228963,1900,Ringwood
Booked Up,Bookstore,"Knox City, 425 Burwood Hwy",-37.868678369112814,145.24093213175337,6377,Wantirna South
Bookworld,Bookstore,,-37.861666,145.286248,6381,Boronia
Daisy Boots Book Shop,Bookstore,385 Mount Dandenong Tourist Road,-37.86232,145.35386,10697,Sassafras
Federation Square Book Market,Bookstore,Federation Square,-37.81722927084524,144.96933978173965,24715,Melbourne
Lilydale Book Barn,Bookstore,,-37.757909,145.351277,10723,
Good News Book House,Bookstore,1027 Whitehorse Road,-37.818128338676956,145.12518714621137,11024,Box Hill
Books & more,Bookstore,270 Canterbury Road forest hill,-37.83549663082094,145.16467094421387,7975,
Boronia Bargain Books,Bookstore,,-37.860496,145.286736,6290,Boronia
House Of Books,Bookstore,,-37.816061,145.194668,4914,Mitcham
Deakin University Building H (Business & Law and MIBT Book Shop),College Bookstore,"Building H, 221 Burwood Highway",-37.84882390258912,145.11473959242863,12608,Burwood
Belgrave Book Barn,Bookstore,,-37.91007901153421,145.35272191626504,14161,Belgrave
Dirt Cheap Books Kilsyth,Bookstore,,-37.819851,145.312713,5560,
McLeods Books,Bookstore,,-37.82054634477679,145.17608227097003,6597,
Belgrave Book Barn,Bookstore,Burwood Highway,-37.90946232077751,145.35263007550097,14103,Belgrave
Motor Book World,Bookstore,243 Canterbury Road,-37.82531517663253,145.09208500385284,13993,Canterbury
Monash Book And Merchandise Store,College Bookstore,,-37.912135,145.133526,15162,Clayton
Victoria University Book Shop,College Bookstore,"Footscray Park Campus, Ballarat Rd",-37.793017314047184,144.89974780538554,30904,Footscray
Rainy Day Books,Bookstore,,-37.855382,145.315948,7535,
Yarra Cottage Books,Bookstore,189 Yarra Street,-37.7372465941707,145.22039966531298,8713,Warrandyte
Dymock's Booksellers,Bookstore,,-37.877896,145.166445,10409,
Book Frenzy,Bookstore,"500 Chapel St, South Yarra VIC 3141",-37.842818,144.995101,22701,South Yarra
The Book Grocer,Bookstore,263 High St.,-37.77264,144.99812,22609,Northcote
The Book Grocer,Bookstore,,-37.837622,144.995999,22543,South Yarra
Book Affair,Bookstore,287 Smith St,-37.80027,144.9839,23465,Fitzroy
The Book Grocer,Bookstore,286 Brunswick Street,-37.7989,144.9786,23940,Fitzroy
Book Grocer,Bookstore,206 Bourke St,-37.81291,144.96702,24913,Melbourne
The Book Grocer,Bookstore,140 Bourke St,-37.812641,144.969259,24716,Melbourne
Book Affair,Bookstore,Elgin Street,-37.797352770545274,144.9693607283613,24762,Carlton
Koorong Books,Bookstore,4-8 Vicki St,-37.84094779279677,145.15609484892786,8893,Blackburn Sth
The Book Grocer,Bookstore,165 Swanston Street,-37.813913,144.965694,25030,Melbourne
Melbourne Book Restoration,Bookstore,,-37.630489776097924,145.18760970431464,20931,
Victoria University Book Shop,College Bookstore,"Footscray Park Campus, Ballarat Rd",-37.793017314047184,144.89974780538554,32628,Footscray
Collins Booksellers,Bookstore,,-37.67554,144.439824,9934,
Book Bonding,Bookstore,,-37.48770262491398,144.59091856929413,24724,
Federation Square Book Market,Bookstore,Federation Square,-37.81722927084524,144.96933978173965,39277,Melbourne
Barricade Anarchist Books and Info Shop,Bookstore,62 St George Street,-37.72168983158128,144.7687524444879,19735,Melbourne
The Book Grocer,Bookstore,,-37.81669,144.89159,32825,Yarraville
Book Grocer,Bookstore,Puckle street,-37.766983,144.922264,33842,Moonee Ponds
Collins Booksellers,Bookstore,27 Evans Street,-37.57892,144.73022,21637,Sunbury
collins bookshop,Bookstore,,-37.87412818567927,144.67819838488666,21979,
Niddrie Arcade Book Exchange & Stamp Shop,Bookstore,334 Keilor Rd,-37.73701198000026,144.89168705071918,30673,Niddrie
Book and Paper,Bookstore,36 Douglas Pde.,-37.85779,144.89799,35276,Williamstown
Mary Martin Books,Bookstore,707 Patterson Lakes,-37.7109525418364,144.80666152985577,23010,Melbourne
Seddon Book Alley,Bookstore,82 Charles St.,-37.80642,144.89109,32377,Footscray
Dirt Cheap Books,Bookstore,Kilmur Rd,-37.874059236757134,144.72361582638706,24333,Hoppers Crossing
Book Affair,Bookstore,,-37.775397,144.960742,37347,
The Book Grocer,Bookstore,452 Sydney Rd.,-37.76746,144.96228,37312,Brunswick
the book grocer,Bookstore,452 Sydney Road,-37.772369384765625,144.96495056152344,37644,
oak st book shop,Bookstore,,-37.722628,144.923902,33374,
All Books 4 Less,Bookstore,Main St,-37.88364733463676,144.7349311903166,25790,Point Cook
The Book Grocer,Bookstore,201 Spencer St.,-37.81639,144.95261,37851,Docklands
The Book Grocer,Bookstore,455 Bourke Street,-37.81527,144.96054,38473,Melbourne
Book Grocer,Bookstore,206 Bourke St,-37.81291,144.96702,38935,Melbourne
Book Affair,Bookstore,Elgin Street,-37.797352770545274,144.9693607283613,38648,Carlton
The Book Grocer,Bookstore,165 Swanston Street,-37.813913,144.965694,38858,Melbourne
The Book Grocer,Bookstore,140 Bourke St,-37.812641,144.969259,39114,Melbourne
The Book Grocer,Bookstore,287 Little Collins St,-37.814927,144.965139,38846,Melbourne
The Book Grocer,Bookstore,286 Brunswick Street,-37.7989,144.9786,39478,Fitzroy
The Book Grocer,Bookstore,147-149 Russell St,-37.81300678505016,144.9682491466126,39042,Melbourne
Book Affair,Bookstore,287 Smith St,-37.80027,144.9839,39968,Fitzroy
The Book Grocer,Bookstore,415 Elizabeth St.,-37.80918,144.96056,38269,Melbourne
The Book Grocer,Bookstore,464 Collins St,-37.81787788882015,144.95883841007142,38423,Melbourne
The Book Grocer,Bookstore,263 High St.,-37.77264,144.99812,40518,Northcote
Blue Guitar Book Shop,Bookstore,,-37.77357,144.971315,38219,
Book Frenzy,Bookstore,"500 Chapel St, South Yarra VIC 3141",-37.842818,144.995101,42362,South Yarra
Book Planet,Bookstore,608 Ferntree Gully Rd,-37.9045899741834,145.16252517700195,58568,Wheelers Hill
The Book Grocer,Bookstore,,-37.837622,144.995999,42234,South Yarra
Second Hands Book,Bookstore,,-37.81507925425275,144.96803770145902,39094,
2nd book shop,Bookstore,,-37.816244,144.968586,39180,
Robinsons Bookshops Highpoint,Bookstore,Rosamond Rd,-37.77558282969414,144.8883557193065,31141,Maribrynong
Farrells Book Store,Bookstore,,-38.22095095137611,145.03944630030514,20198,
Books By The Bay,Bookstore,725 Esplanade,-38.226158,145.030088,19262,Mornington
Antipodes Bookshop Gallery,Bookstore,138 Ocean Beach Road,-38.33933364306724,144.73809242248535,15374,Sorrento
the teacher resource book shop,Bookstore,,-38.3077507019043,145.18878173828125,25381,
The Bookshop At Queenscliff,Bookstore,30-32 Hesse St,-38.26638,144.66136,24605,Queenscliff
The Mystery Bookshop,Bookstore,,-38.266743,144.661531,24573,
Book Planet,Bookstore,608 Ferntree Gully Rd,-37.9045899741834,145.16252517700195,56451,Wheelers Hill
Book Cellars,Bookstore,,-38.33164,144.32103,51560,Torquay
Federation Square Book Market,Bookstore,Federation Square,-37.81722927084524,144.96933978173965,61871,Melbourne
Victoria University Book Shop,College Bookstore,"Footscray Park Campus, Ballarat Rd",-37.793017314047184,144.89974780538554,64349,Footscray
The Book Bird,Bookstore,,-38.138704,144.348708,55426,Geelong West
Thesaurus Books,Bookstore,29 Church St,-37.91312,144.99373,51504,Brighton
Book and Paper,Bookstore,36 Douglas Pde.,-37.85779,144.89799,57142,Williamstown
Monash Book And Merchandise Store,College Bookstore,,-37.912135,145.133526,54719,Clayton
Book Frenzy,Bookstore,"500 Chapel St, South Yarra VIC 3141",-37.842818,144.995101,59276,South Yarra
Gold's Book and Gift Company,Bookstore,3-13R William Street,-37.869441,144.993731,56321,Melbourne
The Book Grocer,Bookstore,,-37.837622,144.995999,59859,South Yarra
Inspiration Adult Book Store,Bookstore,,-37.85731200596345,144.99152721071488,57636,
The Book Grocer,Bookstore,,-37.81669,144.89159,61728,Yarraville
The Book Grocer,Bookstore,455 Bourke Street,-37.81527,144.96054,62028,Melbourne
Book Grocer,Bookstore,206 Bourke St,-37.81291,144.96702,62333,Melbourne
The Book Grocer,Bookstore,140 Bourke St,-37.812641,144.969259,62379,Melbourne
The Book Grocer,Bookstore,165 Swanston Street,-37.813913,144.965694,62212,Melbourne
The Book Grocer,Bookstore,201 Spencer St.,-37.81639,144.95261,61857,Docklands
The Book Grocer,Bookstore,287 Little Collins St,-37.814927,144.965139,62096,Melbourne
The Book Grocer,Bookstore,147-149 Russell St,-37.81300678505016,144.9682491466126,62331,Melbourne
Book Affair,Bookstore,287 Smith St,-37.80027,144.9839,63870,Fitzroy
The Book Grocer,Bookstore,286 Brunswick Street,-37.7989,144.9786,63976,Fitzroy
The Book Grocer,Bookstore,464 Collins St,-37.81787788882015,144.95883841007142,61727,Melbourne
Book Affair,Bookstore,Elgin Street,-37.797352770545274,144.9693607283613,64076,Carlton
The Book Grocer,Bookstore,415 Elizabeth St.,-37.80918,144.96056,62704,Melbourne
Armina Books,Bookstore,7 Audsley Street,-37.93124,145.12185,52367,Clayton South
Deakin University Building H (Business & Law and MIBT Book Shop),College Bookstore,"Building H, 221 Burwood Highway",-37.84882390258912,145.11473959242863,60847,Burwood
Art Book Fair,Bookstore,NGV Hall,-37.822436,144.969346,61293,Melbourne
2nd book shop,Bookstore,,-37.816244,144.968586,61974,
Victoria University Book Shop,College Bookstore,"Footscray Park Campus, Ballarat Rd",-37.793017314047184,144.89974780538554,24182,Footscray
Federation Square Book Market,Bookstore,Federation Square,-37.81722927084524,144.96933978173965,22976,Melbourne
Robinson’s Bookshop,Bookstore,,-37.650953,145.069552,2479,Mill Park
Melbourne Book Restoration,Bookstore,,-37.630489776097924,145.18760970431464,9167,
Book Planet,Bookstore,608 Ferntree Gully Rd,-37.9045899741834,145.16252517700195,31163,Wheelers Hill
The Book Grocer,Bookstore,263 High St.,-37.77264,144.99812,17405,Northcote
Collins Booksellers,Bookstore,"Shop T51, Uni Hill Factory Outlets",-37.68145078137726,145.07084924241798,5654,Bundoora
the book grocer,Bookstore,452 Sydney Road,-37.772369384765625,144.96495056152344,18829,
The Book Grocer,Bookstore,452 Sydney Rd.,-37.76746,144.96228,18512,Brunswick
Book Affair,Bookstore,,-37.775397,144.960742,19316,
Volumes Books And Gifts,Bookstore,"Shop 3, 24 Chute St",-37.67305,145.15122,7529,Diamond Creek
All Books,Bookstore,,-37.70297091432634,145.10280248685464,8114,
All Books 4 Less Greensborough,Bookstore,,-37.703553,145.103868,8197,
Book Grocer,Bookstore,Puckle street,-37.766983,144.922264,20709,Moonee Ponds
Book Affair,Bookstore,287 Smith St,-37.80027,144.9839,20720,Fitzroy
The Book Grocer,Bookstore,286 Brunswick Street,-37.7989,144.9786,20786,Fitzroy
Book Affair,Bookstore,Elgin Street,-37.797352770545274,144.9693607283613,21009,Carlton
oak st book shop,Bookstore,,-37.722628,144.923902,17336,
Blue Guitar Book Shop,Bookstore,,-37.77357,144.971315,18637,
Robinsons Bookshop,Bookstore,Main Street,-37.70358642083249,145.1035889478286,8195,Greensborough
Book Grocer,Bookstore,206 Bourke St,-37.81291,144.96702,22637,Melbourne
The Book Grocer,Bookstore,140 Bourke St,-37.812641,144.969259,22521,Melbourne
The Book Grocer,Bookstore,165 Swanston Street,-37.813913,144.965694,22789,Melbourne
The Book Grocer,Bookstore,455 Bourke Street,-37.81527,144.96054,23133,Melbourne
The Book Grocer,Bookstore,147-149 Russell St,-37.81300678505016,144.9682491466126,22598,Melbourne
The Book Grocer,Bookstore,287 Little Collins St,-37.814927,144.965139,22912,Melbourne
Eltham Bookshop,Bookstore,,-37.7139079662881,145.14842924126035,10788,Eltham
Campions Books,Bookstore,,-37.732274,145.054382,11491,
Marvel Bookbinding & Printfinishing Pty Ltd,Bookstore,21 Kylta Rd,-37.732456,145.044534,11735,
The Book Grocer,Bookstore,201 Spencer St.,-37.81639,144.95261,23577,Docklands
The Book Grocer,Bookstore,415 Elizabeth St.,-37.80918,144.96056,22536,Melbourne
Niddrie Arcade Book Exchange & Stamp Shop,Bookstore,334 Keilor Rd,-37.73701198000026,144.89168705071918,20577,Niddrie
The Book Grocer,Bookstore,,-37.837622,144.995999,24188,South Yarra
Book Frenzy,Bookstore,"500 Chapel St, South Yarra VIC 3141",-37.842818,144.995101,24762,South Yarra
Good News Book House,Bookstore,1027 Whitehorse Road,-37.818128338676956,145.12518714621137,21075,Box Hill
The Book Grocer,Bookstore,464 Collins St,-37.81787788882015,144.95883841007142,23460,Melbourne
Motor Book World,Bookstore,243 Canterbury Road,-37.82531517663253,145.09208500385284,21568,Canterbury
ACU Book Store,College Bookstore,,-37.807676,144.978315,21676,Fitzroy
Victoria University Book Shop,College Bookstore,"Footscray Park Campus, Ballarat Rd",-37.793017314047184,144.89974780538554,26005,Footscray
collins bookshop,Bookstore,,-37.87412818567927,144.67819838488666,4914,
Dirt Cheap Books,Bookstore,Kilmur Rd,-37.874059236757134,144.72361582638706,8089,Hoppers Crossing
Federation Square Book Market,Bookstore,Federation Square,-37.81722927084524,144.96933978173965,30477,Melbourne
All Books 4 Less,Bookstore,Main St,-37.88364733463676,144.7349311903166,8588,Point Cook
Book and Paper,Bookstore,36 Douglas Pde.,-37.85779,144.89799,23163,Williamstown
The Book Grocer,Bookstore,,-37.81669,144.89159,24160,Yarraville
Seddon Book Alley,Bookstore,82 Charles St.,-37.80642,144.89109,24625,Footscray
Book Grocer,Bookstore,Puckle street,-37.766983,144.922264,29198,Moonee Ponds
The Book Grocer,Bookstore,201 Spencer St.,-37.81639,144.95261,29126,Docklands
The Book Grocer,Bookstore,455 Bourke Street,-37.81527,144.96054,29823,Melbourne
Book Planet,Bookstore,608 Ferntree Gully Rd,-37.9045899741834,145.16252517700195,45711,Wheelers Hill
Book Grocer,Bookstore,206 Bourke St,-37.81291,144.96702,30449,Melbourne
The Book Grocer,Bookstore,165 Swanston Street,-37.813913,144.965694,30301,Melbourne
The Book Grocer,Bookstore,140 Bourke St,-37.812641,144.969259,30644,Melbourne
The Book Grocer,Bookstore,287 Little Collins St,-37.814927,144.965139,30216,Melbourne
The Book Grocer,Bookstore,147-149 Russell St,-37.81300678505016,144.9682491466126,30547,Melbourne
Book Affair,Bookstore,Elgin Street,-37.797352770545274,144.9693607283613,31284,Carlton
Book Affair,Bookstore,,-37.775397,144.960742,31655,
The Book Grocer,Bookstore,464 Collins St,-37.81787788882015,144.95883841007142,29583,Melbourne
The Book Grocer,Bookstore,415 Elizabeth St.,-37.80918,144.96056,30067,Melbourne
The Book Grocer,Bookstore,286 Brunswick Street,-37.7989,144.9786,31967,Fitzroy
the book grocer,Bookstore,452 Sydney Road,-37.772369384765625,144.96495056152344,32140,
Book Frenzy,Bookstore,"500 Chapel St, South Yarra VIC 3141",-37.842818,144.995101,31851,South Yarra
Book Affair,Bookstore,287 Smith St,-37.80027,144.9839,32341,Fitzroy
The Book Grocer,Bookstore,452 Sydney Rd.,-37.76746,144.96228,32195,Brunswick
The Book Grocer,Bookstore,,-37.837622,144.995999,32065,South Yarra
Niddrie Arcade Book Exchange & Stamp Shop,Bookstore,334 Keilor Rd,-37.73701198000026,144.89168705071918,29040,Niddrie
Inspiration Adult Book Store,Bookstore,,-37.85731200596345,144.99152721071488,31212,
2nd book shop,Bookstore,,-37.816244,144.968586,30451,
Second Hands Book,Bookstore,,-37.81507925425275,144.96803770145902,30450,
Barricade Anarchist Books and Info Shop,Bookstore,62 St George Street,-37.72168983158128,144.7687524444879,23526,Melbourne
Art Book Fair,Bookstore,NGV Hall,-37.822436,144.969346,30290,Melbourne
Thesaurus Books,Bookstore,29 Church St,-37.91312,144.99373,30888,Brighton
The Book Grocer,Bookstore,263 High St.,-37.77264,144.99812,34729,Northcote
Gold's Book and Gift Company,Bookstore,3-13R William Street,-37.869441,144.993731,31186,Melbourne
Blue Guitar Book Shop,Bookstore,,-37.77357,144.971315,32573,
Enchanted By Books,Bookstore,30 Ferguson St,-37.85898,144.90015,23315,Williamstown
ACU Book Store,College Bookstore,,-37.807676,144.978315,31584,Fitzroy
Lilydale Book Barn,Bookstore,,-37.757909,145.351277,412,
Lilydale Books,Bookstore,Hightech Place,-37.753521236802406,145.34811379092278,244,Lilydale
Book Planet,Bookstore,608 Ferntree Gully Rd,-37.9045899741834,145.16252517700195,23226,Wheelers Hill
Daisy Boots Book Shop,Bookstore,385 Mount Dandenong Tourist Road,-37.86232,145.35386,11885,Sassafras
Dirt Cheap Books Kilsyth,Bookstore,,-37.819851,145.312713,7774,
Belgrave Book Barn,Bookstore,,-37.91007901153421,145.35272191626504,17194,Belgrave
Bookworld,Bookstore,,-37.861666,145.286248,12972,Boronia
Belgrave Book Barn,Bookstore,Burwood Highway,-37.90946232077751,145.35263007550097,17125,Belgrave
adventist Book Centre,Bookstore,,-37.824233,145.166771,17639,
Boronia Bargain Books,Bookstore,,-37.860496,145.286736,12836,Boronia
Booked Up,Bookstore,"Knox City, 425 Burwood Hwy",-37.868678369112814,145.24093213175337,15689,Wantirna South
Rainy Day Books,Bookstore,,-37.855382,145.315948,11442,
Yarra Cottage Books,Bookstore,189 Yarra Street,-37.7372465941707,145.22039966531298,11378,Warrandyte
Federation Square Book Market,Bookstore,Federation Square,-37.81722927084524,144.96933978173965,33971,Melbourne
Melbourne Book Restoration,Bookstore,,-37.630489776097924,145.18760970431464,19815,
robinsons bookshop eastland,Bookstore,,-37.814567,145.228963,12321,Ringwood
Good News Book House,Bookstore,1027 Whitehorse Road,-37.818128338676956,145.12518714621137,20760,Box Hill
House Of Books,Bookstore,,-37.816061,145.194668,15036,Mitcham
Deakin University Building H (Business & Law and MIBT Book Shop),College Bookstore,"Building H, 221 Burwood Highway",-37.84882390258912,145.11473959242863,22952,Burwood
Motor Book World,Bookstore,243 Canterbury Road,-37.82531517663253,145.09208500385284,23772,Canterbury
McLeods Books,Bookstore,,-37.82054634477679,145.17608227097003,16724,
Victoria University Book Shop,College Bookstore,"Footscray Park Campus, Ballarat Rd",-37.793017314047184,144.89974780538554,39620,Footscray
Monash Book And Merchandise Store,College Bookstore,,-37.912135,145.133526,25640,Clayton
The Book Grocer,Bookstore,263 High St.,-37.77264,144.99812,30808,Northcote
Book Affair,Bookstore,287 Smith St,-37.80027,144.9839,32378,Fitzroy
Dymock's Booksellers,Bookstore,,-37.877896,145.166445,20946,
Book Frenzy,Bookstore,"500 Chapel St, South Yarra VIC 3141",-37.842818,144.995101,32483,South Yarra
The Book Grocer,Bookstore,286 Brunswick Street,-37.7989,144.9786,32817,Fitzroy
The Book Grocer,Bookstore,,-37.837622,144.995999,32240,South Yarra
the book grocer,Bookstore,452 Sydney Road,-37.772369384765625,144.96495056152344,33720,
Book Grocer,Bookstore,206 Bourke St,-37.81291,144.96702,34078,Melbourne
Book Affair,Bookstore,Elgin Street,-37.797352770545274,144.9693607283613,33597,Carlton
The Book Grocer,Bookstore,140 Bourke St,-37.812641,144.969259,33879,Melbourne
